,Name,Code,Type,DrainageArea,SubBasin,City,State,Responsible,Latitude,Longitude,StartDate,EndDate,NYD,MD,N_YWOMD,YWMD,geometry
1728,ESTRADA DO CUNHA,58030000,1,796.0,58,CUNHA,SÃO PAULO,ANA,-22.9939,-45.0439,1934/03/21,2019/12/31,86,0.1,82,4.7,POINT (-5014264.0113431355 -2631280.9624407315)
1729,FAZENDA CUME,58033000,1,94.5,58,CUNHA,SÃO PAULO,DAEE-SP,-23.0056,-44.9144,1958/10/01,1972/12/17,15,2.1,11,26.7,POINT (-4999848.137285407 -2632695.8769066567)
1730,BAIRRO FAXINAL,58035000,1,47.3,58,LAGOINHA,SÃO PAULO,DAEE-SP,-23.0736,-45.2,1959/03/10,1975/02/19,17,0.5,14,17.6,POINT (-5031640.9838559665 -2640921.742513468)
1731,SÃO LUÍS DO PARAITINGA,58040000,1,1950.0,58,SÃO LUÍS DO PARAITI,SÃO PAULO,ANA,-23.2386,-45.3067,1988/02/13,2019/12/31,32,0.3,27,15.6,POINT (-5043518.773523607 -2660898.887763142)
1732,SÃO LUÍS DO PARAITINGA,58040100,1,1940.0,58,SÃO LUÍS DO PARAITI,SÃO PAULO,ANA,-23.2167,-45.3,1930/08/18,1974/12/31,45,0.0,44,2.2,POINT (-5042772.932935293 -2658245.9579968536)
1733,SÃO LUÍS DO PARAITINGA,58040200,1,1950.0,58,SÃO LUÍS DO PARAITI,SÃO PAULO,ANA,-23.2394,-45.3053,1973/01/01,1995/12/31,23,34.3,14,39.1,POINT (-5043362.926236497 -2660995.806680362)
1734,PONTE DOS MINEIROS,58045000,1,2430.0,58,NATIVIDADE DA SERRA,SÃO PAULO,ANA,-23.3272,-45.4694,1951/01/01,1974/12/31,24,0.0,24,0.0,POINT (-5061630.4546756735 -2671636.195155082)
1735,PONTE ALTA 1,58060000,1,277.0,58,SÃO LUÍS DO PARAITI,SÃO PAULO,ANA,-23.33,-45.1436,1933/08/29,2019/12/31,87,0.3,83,4.6,POINT (-5025362.564575225 -2671975.639721575)
1736,PONTE ALTA 2,58065000,1,23.0,58,SÃO LUÍS DO PARAITI,SÃO PAULO,ANA,-23.3453,-45.1394,1935/02/01,1979/01/31,45,3.4,38,15.6,POINT (-5024895.022713893 -2673830.588203806)
1737,UHE PARAIBUNA FAZENDA PALMEIRAS,58068000,1,437.0,58,NATIVIDADE DA SERRA,SÃO PAULO,CESP,-23.4211,-45.2889,1964/11/01,1983/12/31,20,4.8,17,15.0,POINT (-5041537.286587487 -2683023.620684346)
1738,BAIRRO ALTO,58070000,1,585.0,58,NATIVIDADE DA SERRA,SÃO PAULO,ANA,-23.4736,-45.3542,1938/10/01,1974/01/20,37,14.2,30,18.9,POINT (-5048806.4493362885 -2689393.9141854965)
1739,NATIVIDADE DA SERRA 2,58075000,1,141.0,58,NATIVIDADE DA SERRA,SÃO PAULO,ANA,-23.3875,-45.4417,1939/06/20,1974/01/31,36,14.7,28,22.2,POINT (-5058546.904780699 -2678947.9599927426)
1740,NATIVIDADE DA SERRA 1,58078000,1,708.0,58,NATIVIDADE DA SERRA,SÃO PAULO,ANA,-23.3931,-45.4611,1935/10/01,1974/02/21,40,2.4,37,7.5,POINT (-5060706.50290209 -2679627.164949385)
1741,VARGINHA,58082000,1,414.0,58,PARAIBUNA,SÃO PAULO,ANA,-23.4542,-45.5458,1953/05/16,1961/01/25,9,0.0,7,22.2,POINT (-5070135.263772279 -2687039.6441176557)
1742,BAIRRO DO CARACOL,58087000,1,1480.0,58,PARAIBUNA,SÃO PAULO,ANA,-23.4111,-45.6389,1953/08/07,1958/12/31,6,0.0,5,16.7,POINT (-5080499.108365133 -2681810.518290538)
1743,UHE PARAIBUNA JUSANTE,58087300,1,4150.0,58,PARAIBUNA,SÃO PAULO,CESP,-23.4144,-45.6081,1969/09/01,2012/12/31,44,41.0,8,81.8,POINT (-5077070.4680487 -2682210.831944174)
1744,ESTRADA DE PARAIBUNA,58088000,1,4350.0,58,PARAIBUNA,SÃO PAULO,ANA,-23.3583,-45.6917,1950/01/01,1958/12/31,9,6.5,8,11.1,POINT (-5086376.777479018 -2675406.8562221453)
1745,UHE SANTA BRANCA,58093080,1,4920.0,58,SANTA BRANCA,SÃO PAULO,LIGHT,-23.3667,-45.8833,1995/01/01,2015/06/29,21,0.1,19,9.5,POINT (-5107705.591915009 -2676425.4500075374)
1746,UHE SANTA BRANCA JUSANTE,58096000,1,4920.0,58,JACAREÍ,SÃO PAULO,LIGHT,-23.3672,-45.8778,1956/11/09,2012/12/31,57,0.6,49,14.0,POINT (-5107093.334715646 -2676486.082624288)
1747,SANTA BRANCA,58097000,1,4940.0,58,SANTA BRANCA,SÃO PAULO,CESP,-23.3667,-45.9,1965/01/01,1972/12/31,8,0.5,6,25.0,POINT (-5109564.627411257 -2676425.4500075374)
1748,SANTA BRANCA,58099000,1,4940.0,58,SANTA BRANCA,SÃO PAULO,ANA,-23.3689,-45.9003,1952/06/10,2019/12/31,68,4.4,62,8.8,POINT (-5109598.023258495 -2676692.235231292)
1749,GUARAREMA,58105000,1,5210.0,58,GUARAREMA,SÃO PAULO,ANA,-23.4153,-46.025,1932/01/01,1980/03/12,49,1.7,46,6.1,POINT (-5123479.563760416 -2682320.0101279193)
1750,GUARAREMA,58105200,1,5210.0,58,GUARAREMA,SÃO PAULO,CESP,-23.4167,-46.0167,1965/02/01,1972/12/31,8,0.5,4,50.0,POINT (-5122555.611986832 -2682489.8443343923)
1751,UHE SANTA BRANCA GUARAREMA,58105300,1,5210.0,58,GUARAREMA,SÃO PAULO,LIGHT,-23.4153,-46.0244,1998/01/01,2015/12/31,18,0.0,18,0.0,POINT (-5123412.77206594 -2682320.0101279193)
1752,LUIZ CARLOS - RÉGUA VELHA,58107100,1,46.0,58,GUARAREMA,SÃO PAULO,ANA,-23.45,-46.05,1934/02/22,1942/12/31,9,0.0,8,11.1,POINT (-5126262.5510302475 -2686530.002335123)
1753,UHE SANTA BRANCA JACAREÍ,58110000,1,5470.0,58,JACAREÍ,SÃO PAULO,LIGHT,-23.3106,-45.9711,1931/03/01,1972/07/31,42,0.2,39,7.1,POINT (-5117479.443206659 -2669623.920676502)
1754,JACAREÍ,58110002,1,5470.0,58,JACAREÍ,SÃO PAULO,ANA,-23.3078,-45.975,2000/01/01,2019/06/30,20,3.1,16,20.0,POINT (-5117913.589220753 -2669284.5256496808)
1755,IGARATA 2,58118000,1,481.0,58,IGARATA,SÃO PAULO,ANA,-23.2083,-46.1278,1950/06/01,1968/12/31,19,0.0,18,5.3,POINT (-5134923.207413965 -2657228.5113267433)
1756,USINA DO TURVO,58122000,1,352.0,58,SÃO JOSÉ DOS CAMPOS,SÃO PAULO,ANA,-23.0944,-46.0222,1952/07/29,1969/12/31,18,0.0,16,11.1,POINT (-5123167.869186195 -2643438.7197311423)
1757,IGARATA 1,58126000,1,692.0,58,IGARATA,SÃO PAULO,ANA,-23.1861,-46.0917,1935/12/12,1969/05/31,35,0.0,33,5.7,POINT (-5130904.573796328 -2654539.852918032)
1758,FAZENDA SÃO JOÃO,58128000,1,1270.0,58,IGARATA,SÃO PAULO,ANA,-23.2125,-46.0694,1950/06/23,1966/12/31,17,0.0,16,5.9,POINT (-5128422.149151638 -2657737.2266654326)
1759,UHE JAGUARI BARRAMENTO,58128100,1,1300.0,58,SÃO JOSÉ DOS CAMPOS,SÃO PAULO,CESP,-23.1936,-46.0258,1995/01/01,2015/06/29,21,0.1,19,9.5,POINT (-5123568.61935305 -2655448.1335301185)
1760,UHE JAGUARI JUSANTE,58128200,1,1300.0,58,SÃO JOSÉ DOS CAMPOS,SÃO PAULO,CESP,-23.1992,-46.0183,1964/03/01,1978/12/31,15,46.0,6,60.0,POINT (-5122733.723172101 -2656126.3496057247)
1761,FAZENDA BARBOSA,58129000,1,1290.0,58,IGARATA,SÃO PAULO,ANA,-23.1972,-46.0389,1954/01/01,1960/12/31,7,0.0,7,0.0,POINT (-5125026.904682443 -2655884.1263177753)
1762,BAIRRO TABOÃO  ,58132000,1,175.0,58,MOGI DAS CRUZES,SÃO PAULO,DAEE-SP,-23.35,-46.2,1969/01/01,1973/02/27,5,4.1,3,40.0,POINT (-5142960.474649239 -2674400.4518977026)
1763,BAIRRO REMEDINHO ,58138000,1,367.0,58,JACAREÍ,SÃO PAULO,DAEE-SP,-23.2333,-46.0333,1961/09/11,1973/01/27,13,12.0,5,61.5,POINT (-5124403.5155340005 -2660256.8146121018)
1764,FAZENDA IGACABA  ,58140100,1,7890.0,58,SÃO JOSÉ DOS CAMPOS,SÃO PAULO,DAEE-SP,-23.1544,-45.8911,1958/08/01,1989/11/30,32,17.6,24,25.0,POINT (-5108573.883943196 -2650701.415750382)
1765,MONTEIRO LOBATO,58141000,1,146.0,58,MONTEIRO LOBATO,SÃO PAULO,CESP,-22.95,-45.85,1965/08/03,1972/12/31,8,17.9,2,75.0,POINT (-5103998.652871594 -2625973.1022546836)
1766,BARRAGEM BUQUIRA,58141800,1,392.0,58,SÃO JOSÉ DOS CAMPOS,SÃO PAULO,CESP,-23.1167,-45.9167,1964/10/08,1974/09/30,11,5.9,5,54.5,POINT (-5111423.6629075045 -2646137.6425709594)
1767,BUQUIRINHA,58142000,1,392.0,58,SÃO JOSÉ DOS CAMPOS,SÃO PAULO,ANA,-23.1139,-45.9125,1932/02/18,1972/07/31,41,0.0,39,4.9,POINT (-5110956.121046172 -2645798.7397594713)
1768,BUQUIRINHA II,58142200,1,407.0,58,SÃO JOSÉ DOS CAMPOS,SÃO PAULO,ANA,-23.1247,-45.9072,1979/01/14,2019/12/31,41,0.0,39,4.9,POINT (-5110366.127744969 -2647105.9752791757)
1769,PARARANGABA  ,58147000,1,50.0,58,SÃO JOSÉ DOS CAMPOS,SÃO PAULO,DAEE-SP,-23.1833,-45.8,1960/02/19,2011/12/31,52,35.4,30,42.3,POINT (-5098432.678331929 -2654200.7745448784)
1770,BAIRRO SANTA LUZIA  ,58148000,1,62.2,58,CAÇAPAVA,SÃO PAULO,DAEE-SP,-23.15,-45.75,1970/01/01,1975/12/27,6,0.0,5,16.7,POINT (-5092866.703792266 -2650168.7076353775)
1771,CAÇAPAVA,58152000,1,8360.0,58,CAÇAPAVA,SÃO PAULO,ANA,-23.0792,-45.7111,1933/08/01,1975/04/30,43,3.4,39,9.3,POINT (-5088536.375600408 -2641599.351919122)
1772,PARQUE MOÇOTA,58152010,1,8360.0,58,CAÇAPAVA,SÃO PAULO,ANA,-23.0778,-45.7111,2006/06/03,2014/12/31,9,0.0,8,11.1,POINT (-5088536.375600408 -2641429.9469223325)
1773,CAÇAPAVA,58152100,1,8490.0,58,CAÇAPAVA,SÃO PAULO,CESP,-23.0667,-45.7,1964/10/13,1971/12/31,8,11.4,3,62.5,POINT (-5087300.729252602 -2640086.869719686)
1774,CERÂMICA QUIRINO ,58155000,1,30.5,58,CAÇAPAVA,SÃO PAULO,DAEE-SP,-23.0711,-45.6689,1957/11/23,1998/12/31,42,4.6,34,19.0,POINT (-5083838.693088932 -2640619.2474237294)
1775,QUIRIRIM ,58156000,1,48.1,58,TAUBATÉ,SÃO PAULO,DAEE-SP,-23.0333,-45.6333,1972/01/25,1976/01/31,5,0.0,3,40.0,POINT (-5079875.71921669 -2636046.2063374524)
1776,ATERRO VELHO DA EFCB,58157000,1,22.2,58,TAUBATÉ,SÃO PAULO,DAEE-SP,-23.0,-45.6,1972/11/27,1976/01/31,5,0.0,3,40.0,POINT (-5076168.780173275 -2632018.6375864246)
1777,TREMEMBÉ,58158000,1,8860.0,58,TREMEMBÉ,SÃO PAULO,ANA,-22.9606,-45.5528,1934/07/04,1971/12/31,38,6.0,33,13.2,POINT (-5070914.500207832 -2627254.568968434)
1778,TREMEMBÉ,58158100,1,8860.0,58,TREMEMBÉ,SÃO PAULO,FURNAS,-22.9597,-45.5539,2000/01/01,2009/01/30,10,0.0,9,10.0,POINT (-5071036.9516477045 -2627145.7612895644)
1779,FAZENDA KANEGAI  ,58165000,1,161.0,58,TREMEMBÉ,SÃO PAULO,DAEE-SP,-22.9042,-45.5528,1969/11/01,1998/01/31,30,8.3,22,26.7,POINT (-5070914.500207832 -2620437.352063453)
1780,FAZENDA SANTA CLARA ,58165500,1,118.0,58,TAUBATÉ,SÃO PAULO,DAEE-SP,-23.1333,-45.4667,1972/03/29,1977/12/31,6,0.0,5,16.7,POINT (-5061329.892050532 -2648146.9973397483)
1781,BAIRRO RIBEIRÃO DAS ALMAS,58166000,1,84.0,58,TAUBATÉ,SÃO PAULO,DAEE-SP,-23.15,-45.4167,1954/02/01,1972/04/30,19,0.0,17,10.5,POINT (-5055763.917510867 -2650168.7076353775)
1782,REMÉDIOS,58170000,1,357.0,58,TAUBATÉ,SÃO PAULO,ANA,-23.0597,-45.5028,1933/10/18,1942/12/31,10,0.1,8,20.0,POINT (-5065348.525668169 -2639239.94106994)
1783,BAIRRO DOS REMÉDIOS ,58170100,1,347.0,58,TAUBATÉ,SÃO PAULO,DAEE-SP,-23.0667,-45.4833,1957/06/01,1967/03/31,11,0.4,8,27.3,POINT (-5063177.7955977 -2640086.869719686)
1784,VIVEIRO FLORESTAL,58172000,1,17.7,58,TAUBATÉ,SÃO PAULO,DAEE-SP,-23.1833,-45.4667,1960/06/01,1972/11/30,13,0.7,10,23.1,POINT (-5061329.892050532 -2654200.7745448784)
1785,FAZENDA MODELO,58177000,1,465.0,58,TREMEMBÉ,SÃO PAULO,DAEE-SP,-22.9756,-45.5047,1954/01/19,1978/02/27,25,7.7,14,44.0,POINT (-5065560.0327006765 -2629068.136915423)
1786,PONTE DE PINDAMONHANGABA,58182500,1,9600.0,58,PINDAMONHANGABA,SÃO PAULO,DAEE-SP,-22.9119,-45.4711,1983/02/01,2000/07/31,18,0.9,16,11.1,POINT (-5061819.697810022 -2621367.904108641)
1787,PINDAMONHANGABA,58183000,1,9600.0,58,PINDAMONHANGABA,SÃO PAULO,ANA,-22.9117,-45.47,1926/01/01,2019/10/31,94,0.1,92,2.1,POINT (-5061697.24637015 -2621343.7332571065)
1788,PINDAMONHANGABA ,58185000,1,79.6,58,PINDAMONHANGABA,SÃO PAULO,DAEE-SP,-22.9256,-45.4436,1955/01/29,1998/12/31,44,2.5,40,9.1,POINT (-5058758.411813207 -2623023.6923464704)
1789,BAIRRO ÁGUA PRETA ,58190500,1,20.7,58,PINDAMONHANGABA,SÃO PAULO,DAEE-SP,-22.9,-45.4167,1976/04/28,1979/02/28,4,0.0,2,50.0,POINT (-5055763.917510867 -2619929.8004916054)
1790,VÁRZEA DO PARAÍBA,58192000,1,9770.0,58,PINDAMONHANGABA,SÃO PAULO,DAEE-SP,-22.8742,-45.4064,1959/03/01,1999/12/31,41,0.4,39,4.9,POINT (-5054617.326755697 -2616812.328342972)
1791,FAZENDA SAPUCAIA  ,58194000,1,117.0,58,PINDAMONHANGABA,SÃO PAULO,DAEE-SP,-22.8167,-45.3667,1957/09/24,1975/05/31,19,0.0,17,10.5,POINT (-5050197.942971204 -2609866.6030615875)
1792,PIRAPITINGUI  ,58198000,1,66.9,58,ROSEIRA,SÃO PAULO,DAEE-SP,-22.9336,-45.3175,1973/08/01,1989/02/28,17,0.0,15,11.8,POINT (-5044721.0240241755 -2623990.6534243124)
1793,FAZENDA NATAL ,58200000,1,65.3,58,GUARATINGUETÁ,SÃO PAULO,DAEE-SP,-22.7833,-45.3167,1971/01/01,1976/01/31,6,0.0,5,16.7,POINT (-5044631.96843154 -2605833.389392793)
1794,POTIM,58201000,1,10300.0,58,GUARATINGUETÁ,SÃO PAULO,DAEE-SP,-22.8439,-45.2519,1969/11/01,2001/10/31,33,1.3,31,6.1,POINT (-5037418.465428136 -2613151.8671066053)
1795,GUARATINGUETÁ,58204000,1,10800.0,58,GUARATINGUETÁ,SÃO PAULO,ANA,-22.8119,-45.1825,1922/11/20,2019/12/31,98,0.0,96,2.0,POINT (-5029692.892767083 -2609286.918715769)
1796,BAIRRO RIO COMPRIDO ,58206000,1,10800.0,58,GUARATINGUETÁ,SÃO PAULO,DAEE-SP,-22.7933,-45.1783,1953/06/01,1981/12/31,29,0.0,28,3.4,POINT (-5029225.350905752 -2607040.8347533224)
1797,PILÕES,58207000,1,83.0,58,GUARATINGUETÁ,SÃO PAULO,ANA,-22.6819,-45.2922,1935/01/01,1961/03/14,27,0.3,25,7.4,POINT (-5041904.640907106 -2593594.8839655034)
1798,COLÔNIA PIAGUI ,58211000,1,171.0,58,GUARATINGUETÁ,SÃO PAULO,DAEE-SP,-22.7369,-45.2031,1971/01/01,2002/12/31,32,1.3,29,9.4,POINT (-5031986.074277424 -2600232.0002789414)
1799,LORENA / PIQUETE ,58214000,1,11200.0,58,LORENA,SÃO PAULO,DAEE-SP,-22.6997,-45.1186,1964/12/01,1992/12/31,29,31.7,19,34.5,POINT (-5022579.577305393 -2595742.6043810286)
1800,FAZENDA SANTA CATARINA ,58215000,1,36.4,58,LORENA,SÃO PAULO,DAEE-SP,-22.6983,-45.1358,1969/03/01,1999/12/31,31,7.1,26,16.1,POINT (-5024494.272547037 -2595573.6724408646)
1801,PITEU ,58217500,1,39.4,58,CACHOEIRA PAULISTA,SÃO PAULO,DAEE-SP,-22.6731,-45.0172,1973/07/01,1997/10/31,25,0.0,23,8.0,POINT (-5011291.780938955 -2592533.192623932)
1802,UHE FUNIL MONTANTE 2,58218000,1,11500.0,58,CACHOEIRA PAULISTA,SÃO PAULO,FURNAS,-22.6617,-45.0125,1922/11/14,2016/12/31,95,9.5,83,12.6,POINT (-5010768.579332227 -2591157.9210260403)
1803,CACHOEIRA PAULISTA,58218100,1,11500.0,58,CACHOEIRA PAULISTA,SÃO PAULO,CESP,-22.65,-45.0167,1965/02/01,1972/12/31,8,0.6,6,25.0,POINT (-5011236.121193559 -2589746.5768629797)
1804,FAZENDA SANTA CLARA,58220000,1,240.0,58,CACHOEIRA PAULISTA,SÃO PAULO,ANA,-22.6925,-44.9753,1935/12/01,2019/12/31,85,0.1,82,3.5,POINT (-5006627.494274717 -2594873.82993729)
1805,EMBAU ,58227000,1,179.0,58,CACHOEIRA PAULISTA,SÃO PAULO,DAEE-SP,-22.5975,-45.0356,1970/01/01,1996/12/31,27,4.9,24,11.1,POINT (-5013340.059569552 -2583415.1016286253)
1806,PASSA VINTE ,58228000,1,64.1,58,CRUZEIRO,SÃO PAULO,DAEE-SP,-22.5667,-45.0333,1969/05/21,1981/02/25,13,32.6,7,46.2,POINT (-5013084.024740727 -2579701.7602304188)
1807,CRUZEIRO,58230000,1,12200.0,58,CRUZEIRO,SÃO PAULO,ANA,-22.5892,-44.9558,1934/01/03,1980/03/20,47,0.0,45,4.3,POINT (-5004456.764204249 -2582414.3467332684)
1808,CRUZEIRO ,58230100,1,12200.0,58,CRUZEIRO,SÃO PAULO,DAEE-SP,-22.5856,-44.955,1971/01/01,2001/11/30,31,0.0,30,3.2,POINT (-5004367.708611613 -2581980.3031235174)
1809,CRUZEIRO,58230200,1,12200.0,58,CRUZEIRO,SÃO PAULO,LIGHT,-22.5833,-44.95,1970/08/21,1995/12/27,26,4.2,19,26.9,POINT (-5003811.111157647 -2581703.003423043)
1810,UHE FUNIL MONTANTE 1,58235000,1,12800.0,58,QUELUZ,SÃO PAULO,FURNAS,-22.5403,-44.7739,1934/10/30,2016/12/31,83,12.0,69,16.9,POINT (-4984207.748828951 -2576519.556414524)
1811,QUELUZ,58235100,1,12800.0,58,QUELUZ,SÃO PAULO,ANA,-22.54,-44.7728,1934/10/30,2019/12/31,86,9.3,76,11.6,POINT (-4984085.297389079 -2576483.398505879)
1819,BANANAL,58285000,1,67.0,58,BANANAL,SÃO PAULO,ANA,-22.6861,-44.3264,1935/12/01,1940/12/31,6,0.0,5,16.7,POINT (-4934392.276698961 -2594101.624311534)
1959,FAZENDA DAS GARRAFAS,59355000,1,21.0,59,SÃO JOSÉ DO BARREIR,SÃO PAULO,ANA,-22.7356,-44.6167,1978/02/05,2019/12/31,42,0.0,40,4.8,POINT (-4966708.324876249 -2600075.0922025507)
1960,FAZENDA DA POSSE,59360000,1,21.0,59,SÃO JOSÉ DO BARREIR,SÃO PAULO,ANA,-22.7333,-44.6167,1967/09/06,1978/02/14,12,1.5,9,25.0,POINT (-4966708.324876249 -2599797.4892603285)
2244,FAZENDA DA GUARDA,61250000,1,109.0,61,CAMPOS DO JORDÃO,SÃO PAULO,ANA,-22.6878,-45.4797,1934/09/15,2014/12/31,81,0.1,79,2.5,POINT (-5062777.045430845 -2594306.7379136174)
2245,PARQUE ESTADUAL,61250100,1,109.0,61,CAMPOS DO JORDÃO,SÃO PAULO,DAEE-SP,-22.6881,-45.4789,1980/08/08,2018/03/31,39,7.4,30,23.1,POINT (-5062687.98983821 -2594342.9346957346)
2246,VILA MARIA,61255000,1,29.8,61,SÃO BENTO DO SAPUCA,SÃO PAULO,ANA,-22.4964,-45.2456,1941/01/11,1965/12/31,25,0.8,19,24.0,POINT (-5036717.152636139 -2571229.2839629836)
2261,SÃO BENTO DO SAPUCAÍ,61320000,1,475.0,61,SÃO BENTO DO SAPUCA,SÃO PAULO,ANA,-22.6858,-45.7353,1937/04/18,2014/12/31,78,1.7,71,9.0,POINT (-5091230.307277605 -2594065.4280576115)
2326,RIFAINA,61730000,1,61400.0,61,RIFAINA,SÃO PAULO,ANA,-20.0833,-47.3833,1930/01/01,1957/02/25,28,26.5,17,39.3,POINT (-5274684.82810492 -2282901.5707993465)
2328,UHE LUIZ CARLOS BARRETO DE CARVALHO BARRAMENTO,61731080,1,61100.0,61,PEDREGULHO,SÃO PAULO,FURNAS,-20.1533,-47.2794,1990/01/01,2015/06/29,26,0.0,24,7.7,POINT (-5263118.733011499 -2291200.2865507696)
2331,CANINDÉ,61756000,1,1260.0,61,ITUVERAVA,SÃO PAULO,ANA,-20.1667,-47.8833,1966/07/03,1982/08/03,17,1.6,13,23.5,POINT (-5330344.573501556 -2292789.321790932)
2334,PCH DOURADOS SANTO ANTÔNIO DA ALEGRIA,61772000,1,449.0,61,SANTO ANTÔNIO DA AL,SÃO PAULO,CHIMAY,-21.0856,-47.1494,2004/01/01,2018/05/31,15,11.0,11,26.7,POINT (-5248647.199208373 -2402088.4050411806)
2335,COBIÇA,61774000,1,825.0,61,ALTINÓPOLIS,SÃO PAULO,CETESB-SP,-21.0861,-47.1489,1967/07/01,1983/06/04,17,0.0,15,11.8,POINT (-5248591.539462976 -2402148.059076883)
2336,PATROCÍNIO PAULISTA,61776800,1,275.0,61,PATROCINIO PAULISTA,SÃO PAULO,ANA,-20.6328,-47.2836,2011/06/22,2018/04/30,8,34.3,3,62.5,POINT (-5263586.27487283 -2348147.3823231626)
2337,BATATAIS,61777000,1,202.0,61,BATATAIS,SÃO PAULO,DAEE-SP,-20.8672,-47.5342,1980/11/01,2007/07/31,28,7.6,21,25.0,POINT (-5291482.939265625 -2376050.632882038)
2338,FAZENDA N.S. DAS GRAÇAS,61780000,1,3350.0,61,BATATAIS,SÃO PAULO,ANA,-20.7333,-47.55,1966/07/03,1981/01/31,16,0.0,14,12.5,POINT (-5293241.787220159 -2360105.725429827)
2339,FAZENDA VELHA (CPFL),61780500,1,3870.0,61,NUPORANGA,SÃO PAULO,DAEE-SP,-20.6828,-47.6236,1929/08/14,1946/09/30,18,0.2,16,11.1,POINT (-5301434.901742544 -2354095.816917394)
2340,FAZENDA SILVANA,61781000,1,3690.0,61,NUPORANGA,SÃO PAULO,ANA,-20.7167,-47.6,1977/01/09,1977/11/20,1,0.0,0,100.0,POINT (-5298807.761759822 -2358129.9701776034)
2341,USINA DOURADOS,61782000,1,3860.0,61,NUPORANGA,SÃO PAULO,ANA,-20.6833,-47.6167,1937/10/12,1976/11/30,40,25.8,25,37.5,POINT (-5300666.797256069 -2354155.3111519055)
2342,BURITI ,61782500,1,83.0,61,SÃO JOSÉ DA BELA VI,SÃO PAULO,DAEE-SP,-20.615,-47.6878,1980/11/01,2001/12/31,22,2.7,19,13.6,POINT (-5308581.613051471 -2346030.2115988)
2343,SÍTIO CACHOEIRA,61783000,1,258.0,61,SÃO JOSÉ DA BELA VI,SÃO PAULO,DAEE-SP,-20.6014,-47.7006,1980/08/01,1996/08/31,17,3.7,13,23.5,POINT (-5310006.502533626 -2344412.76475615)
2344,SÍTIO SANTA FÉ,61783500,1,4660.0,61,SÃO JOAQUIM DA BARR,SÃO PAULO,DAEE-SP,-20.5444,-47.8211,1971/01/15,1981/08/02,11,2.1,6,45.5,POINT (-5323420.501174215 -2337635.328164548)
2345,GUARÁ,61785000,1,267.0,61,GUARÁ,SÃO PAULO,DAEE-SP,-20.4225,-47.8811,1980/11/01,2001/05/31,22,0.0,20,9.1,POINT (-5330099.670621811 -2323149.593908993)
2346,UHE PORTO COLÔMBIA RIO SAPUCAÍ PAULISTA,61787000,1,5890.0,61,MIGUELÓPOLIS,SÃO PAULO,FURNAS,-20.2497,-48.1561,2000/01/01,2016/12/31,17,0.9,16,5.9,POINT (-5360712.530589962 -2302634.8988835)
2347,FAZENDA SÃO DOMINGOS,61787500,1,6270.0,61,GUAÍRA,SÃO PAULO,DAEE-SP,-20.2025,-48.29,1969/10/22,2002/12/31,34,0.7,30,11.8,POINT (-5375618.210407181 -2297035.324510926)
2348,FAZENDA SÃO DOMINGOS,61788000,1,6260.0,61,MIGUELÓPOLIS,SÃO PAULO,ANA,-20.2042,-48.2892,1938/05/04,2019/08/31,82,28.0,46,43.9,POINT (-5375529.154814546 -2297236.9746044497)
2357,BOM JESUS,61811000,1,378.0,61,CACONDE,SÃO PAULO,AES TIETÊ,-21.5314,-46.6186,1968/04/01,1993/12/31,26,23.3,19,26.9,POINT (-5189558.8134953035 -2455356.3353605173)
2358,UHE CACONDE BARRAMENTO,61811080,1,2560.0,61,CACONDE,SÃO PAULO,AES TIETÊ,-21.575,-46.6236,1990/01/01,2015/06/29,26,0.0,24,7.7,POINT (-5190115.41094927 -2460574.753466401)
2359,UHE EUCLIDES DA CUNHA ABAIXO CACONDE,61812000,1,2560.0,61,CACONDE,SÃO PAULO,AES TIETÊ,-21.5583,-46.6583,1964/02/01,1976/12/31,13,0.0,12,7.7,POINT (-5193978.197279796 -2458575.770356667)
2361,SÃO JOSÉ DO RIO PARDO,61817000,1,4090.0,61,SÃO JOSÉ DO RIO PAR,SÃO PAULO,ANA,-21.6,-46.9,1938/01/01,1979/12/31,42,0.8,41,2.4,POINT (-5220884.11820453 -2463567.673849856)
2362,SÃO JOSÉ DO RIO PARDO,61817002,1,4060.0,61,SÃO JOSÉ DO RIO PAR,SÃO PAULO,DAEE-SP,-21.5833,-46.8833,1944/06/01,1968/03/21,25,0.0,23,8.0,POINT (-5219025.082708282 -2461568.345740753)
2363,UHE EUCLIDES DA CUNHA SÃO JOSÉ DO RIO PARDO,61817004,1,4060.0,61,SÃO JOSÉ DO RIO PAR,SÃO PAULO,AES TIETÊ,-21.5739,-46.8803,1964/02/01,1976/12/31,13,0.0,12,7.7,POINT (-5218691.124235903 -2460443.076834345)
2364,UHE EUCLIDES DA CUNHA BARRAMENTO,61818080,1,4350.0,61,SÃO JOSÉ DO RIO PAR,SÃO PAULO,AES TIETÊ,-21.6014,-46.9494,1990/01/01,2015/06/29,26,0.0,24,7.7,POINT (-5226383.301049718 -2463735.2926736884)
2365,UHE LIMOEIRO BARRAMENTO,61819080,1,4430.0,61,SÃO JOSÉ DO RIO PAR,SÃO PAULO,AES TIETÊ,-21.6253,-47.0094,1990/01/01,2015/06/29,26,0.0,24,7.7,POINT (-5233062.470497315 -2466597.0357160103)
2366,UHE LIMOEIRO JUSANTE,61820000,1,4440.0,61,MOCOCA,SÃO PAULO,AES TIETÊ,-21.6236,-47.0353,2003/10/11,2018/12/31,16,1.2,8,50.0,POINT (-5235945.64530886 -2466393.4651444308)
2367,ITOBI,61821000,1,347.0,61,ITOBI,SÃO PAULO,DAEE-SP,-21.715,-46.9767,1980/08/01,2011/08/31,32,13.3,22,31.2,POINT (-5229422.323148374 -2477341.779315016)
2369,PONTE DO CANOAS,61826000,1,649.0,61,MOCOCA,SÃO PAULO,ANA,-21.4203,-46.9622,1947/08/26,2014/12/31,68,0.0,67,1.5,POINT (-5227808.190531872 -2442066.0166787906)
2370,UHE MARIMBONDO FAZENDA CORREDEIRA,61830000,1,8490.0,61,SERRA AZUL,SÃO PAULO,FURNAS,-21.3183,-47.4767,1937/07/10,2014/08/31,78,6.6,70,10.3,POINT (-5285082.068545012 -2429873.1839039843)
2371,ESTÂNCIA COLORADO,61832000,1,392.0,61,CAJURU,SÃO PAULO,DAEE-SP,-21.1833,-47.3833,1980/08/21,1986/10/31,7,42.0,2,71.4,POINT (-5274684.82810492 -2413748.623284446)
2372,CLUBE DE REGATAS,61834000,1,10700.0,61,RIBEIRÃO PRETO,SÃO PAULO,ANA,-21.1036,-47.7572,2011/06/23,2018/05/31,8,1.2,5,37.5,POINT (-5316307.185712524 -2404236.0768286125)
2373,PARQUE RIBEIRÃO PRETO,61840000,1,10700.0,61,RIBEIRÃO PRETO,SÃO PAULO,ANA,-21.1019,-47.7572,1930/11/01,1965/12/31,36,14.2,30,16.7,POINT (-5316307.185712524 -2404033.2300281865)
2374,UHE MARIMBONDO FAZENDA BELA VISTA,61855000,1,12400.0,61,PONTAL,SÃO PAULO,FURNAS,-20.9086,-48.0875,1987/10/01,2018/01/31,32,38.4,17,46.9,POINT (-5353076.013521543 -2380983.445399208)
2381,USINA PINHAL,61871000,1,1300.0,61,ESPIRITO SANTO DO P,SÃO PAULO,ANA,-22.2586,-46.7164,1937/07/07,1980/03/12,44,0.0,42,4.5,POINT (-5200445.859694886 -2542601.7008816963)
2382,SÍTIO PONTE PRETA,61873000,1,1290.0,61,ESPIRITO SANTO DO P,SÃO PAULO,DAEE-SP,-22.2864,-46.7656,1973/11/01,1979/09/26,7,0.0,5,28.6,POINT (-5205922.778641914 -2545945.886655725)
2383,BAIRRO RIO MANSO,61873900,1,1743.0,61,ITAPIRA,SÃO PAULO,DAEE-SP,-22.3156,-46.81,2006/06/02,2013/08/31,8,5.8,3,62.5,POINT (-5210865.364033136 -2549459.200861046)
2384,UHE MOGI-GUAÇU MONTANTE,61874000,1,1980.0,61,ITAPIRA,SÃO PAULO,AES TIETÊ,-22.3161,-46.8106,2003/01/01,2018/12/31,16,12.1,9,43.8,POINT (-5210932.155727612 -2549519.3667478478)
2385,UHE MOGI-GUAÇU RIBEIRÃO DA PENHA,61875000,1,269.0,61,ITAPIRA,SÃO PAULO,AES TIETÊ,-22.4258,-46.8172,2006/12/22,2018/12/31,13,0.8,6,53.8,POINT (-5211666.864366847 -2562724.9836785407)
2386,FAZENDA ALIANÇA,61878000,1,502.0,61,ESPIRITO SANTO DO P,SÃO PAULO,ANA,-22.3,-46.75,1937/07/07,1959/05/31,23,45.8,10,56.5,POINT (-5204186.194585539 -2547582.1334137623)
2387,LINDÓIA,61879000,1,1140.0,61,LINDÓIA,SÃO PAULO,ANA,-22.5219,-46.6472,1966/07/05,2014/12/31,49,5.0,42,14.3,POINT (-5192742.55093199 -2574302.0166828586)
2388,UHE MOGI-GUAÇU RIO PEIXE,61880000,1,1390.0,61,ITAPIRA,SÃO PAULO,AES TIETÊ,-22.3858,-46.7947,1999/01/01,2018/12/31,20,7.7,9,55.0,POINT (-5209162.175823999 -2557908.603089927)
2389,MOGI GUAÇU II,61883000,1,3800.0,61,MOGI-GUAÇU,SÃO PAULO,ANA,-22.3694,-46.9217,1977/05/15,1979/12/31,3,0.0,2,33.3,POINT (-5223299.751154744 -2555934.287485084)
2390,MOGI GUAÇU I,61884000,1,3830.0,61,MOGI-GUAÇU,SÃO PAULO,ANA,-22.3714,-46.935,1942/01/01,1978/04/30,37,0.0,35,5.4,POINT (-5224780.300382295 -2556175.04522544)
2391,MOGI GUAÇU,61884002,1,3800.0,61,MOGI-GUAÇU,SÃO PAULO,DAEE-SP,-22.3667,-46.9333,1944/12/01,2018/05/31,75,25.6,48,36.0,POINT (-5224591.057247947 -2555609.270021763)
2392,UHE MOGI-GUAÇU JUSANTE,61884090,1,3800.0,61,MOGI-GUAÇU,SÃO PAULO,AES TIETÊ,-22.3744,-46.9175,2008/06/10,2018/12/31,11,1.5,8,27.3,POINT (-5222832.209293412 -2556536.1883217394)
2393,FOZ DO ORIÇANGA,61885600,1,509.0,61,MOGI-GUAÇU,SÃO PAULO,DAEE-SP,-22.2842,-47.0431,2006/09/05,2013/11/30,8,1.9,5,37.5,POINT (-5236813.937337048 -2545681.214640364)
2394,PÁDUA SALES,61886000,1,4670.0,61,CONCHAL,SÃO PAULO,ANA,-22.2992,-47.1339,1937/07/08,2014/12/31,78,9.6,67,14.1,POINT (-5246921.747101077 -2547485.8791960636)
2395,SÍTIO SÃO SILVESTRE,61887000,1,399.0,61,CONCHAL,SÃO PAULO,DAEE-SP,-22.3333,-47.1667,1976/05/27,1982/10/13,7,1.2,4,42.9,POINT (-5250573.0263990965 -2551589.204515076)
2396,BAIRRO TAQUARI PONTES,61888500,1,5458.0,61,LEME,SÃO PAULO,DAEE-SP,-22.0969,-47.2556,2006/08/15,2013/10/31,8,3.2,5,37.5,POINT (-5260469.329130619 -2523163.218785021)
2397,FOZ DO RIBEIRÃO DO MEIO,61888700,1,253.0,61,LEME,SÃO PAULO,DAEE-SP,-22.0975,-47.2703,2006/08/15,2011/06/25,6,13.2,1,83.3,POINT (-5262105.7256452795 -2523235.3054609853)
2398,PCH EMAS NOVA FAZENDA SANTA TEREZA,61890000,1,6750.0,61,PIRASSUNUNGA,SÃO PAULO,ARATU,-22.025,-47.2872,2009/08/31,2018/12/31,10,4.3,7,30.0,POINT (-5263987.025039686 -2514527.048002052)
2400,CACHOEIRA DO DIOGO,61892000,1,351.0,61,SÃO JOÃO DA BOA VIS,SÃO PAULO,ANA,-22.0922,-46.6792,1939/03/01,1961/03/31,23,1.4,19,17.4,POINT (-5196304.774637376 -2522598.55042585)
2401,FAZENDA PARAÍSO,61892500,1,466.0,61,SANTO ANTÔNIO DO JA,SÃO PAULO,DAEE-SP,-22.0853,-46.7192,2006/09/05,2007/04/30,2,0.0,0,100.0,POINT (-5200757.554269106 -2521769.603277572)
2402,UHE SÃO JOAQUIM JUSANTE,61894600,1,932.0,61,VARGEM GRANDE DO SU,SÃO PAULO,DAEE-SP,-21.8742,-46.8939,2006/08/11,2013/05/31,8,0.8,4,50.0,POINT (-5220205.069310692 -2496428.12612873)
2403,SÃO JOÃO DA BOA VISTA,61895000,1,622.0,61,SÃO JOÃO DA BOA VIS,SÃO PAULO,ANA,-21.9783,-46.8069,1944/04/24,2014/12/31,71,27.3,37,47.9,POINT (-5210520.273611677 -2508920.0900349114)
2404,SÃO JOÃO DA BOA VISTA,61895002,1,623.0,61,SÃO JOÃO DA BOA VIS,SÃO PAULO,AES TIETÊ,-21.9667,-46.8167,1968/04/01,1976/12/31,9,4.8,6,33.3,POINT (-5211611.204621451 -2507527.641408194)
2405,PCH SÃO JOSÉ MONTANTE 1,61895020,1,756.0,61,SÃO JOÃO DA BOA VIS,SÃO PAULO,AES TIETÊ,-21.9389,-46.8161,2011/12/13,2017/12/31,7,0.0,6,14.3,POINT (-5211544.412926975 -2504191.028887426)
2406,PCH SÃO JOSÉ JUSANTE,61895050,1,,61,SÃO JOÃO DA BOA VIS,SÃO PAULO,AES TIETÊ,-21.9297,-46.8164,2015/05/11,2017/12/31,3,0.0,2,33.3,POINT (-5211577.808774213 -2503086.969825778)
2407,PCH SÃO JOAQUIM JUSANTE,61895075,1,888.0,61,SÃO JOÃO DA BOA VIS,SÃO PAULO,AES TIETÊ,-21.8744,-46.8922,2011/12/13,2018/12/31,8,0.1,6,25.0,POINT (-5220015.8261763435 -2496452.1173087424)
2408,PCH EMAS NOVA MONTANTE SÍTIO AGROCERES,61898500,1,9540.0,61,PIRASSUNUNGA,SÃO PAULO,ARATU,-21.9269,-47.3253,2009/06/14,2018/12/31,10,1.6,3,70.0,POINT (-5268228.297638909 -2502750.966018335)
2409,PCH EMAS NOVA JUSANTE,61899000,1,9670.0,61,PIRASSUNUNGA,SÃO PAULO,ARATU,-21.9108,-47.3989,2009/03/30,2018/12/31,10,7.2,2,80.0,POINT (-5276421.412161294 -2500819.0723640844)
2410,UHE MARIMBONDO PORTO FERREIRA,61902000,1,10100.0,61,PORTO FERREIRA,SÃO PAULO,FURNAS,-21.8461,-47.4742,1937/07/12,2015/12/09,79,0.0,76,3.8,POINT (-5284803.769818028 -2493057.699368319)
2411,PORTO CUNHA BUENO,61910000,1,12300.0,61,SÃO CARLOS,SÃO PAULO,DAEE-SP,-21.6969,-47.8136,1970/04/01,2018/05/31,49,3.2,38,22.4,POINT (-5322585.604993265 -2475173.1263832105)
2412,FAZENDA SANTA TEREZA,61911000,1,140.0,61,RINCÃO,SÃO PAULO,DAEE-SP,-21.6281,-48.0875,1985/07/01,1997/12/31,13,7.4,9,30.8,POINT (-5353076.013521543 -2466932.3336421596)
2413,PONTE GUATAPARA,61912000,1,13900.0,61,GUATAPARÁ,SÃO PAULO,ANA,-21.5025,-48.0406,1937/07/11,2014/12/31,78,0.0,77,1.3,POINT (-5347855.129403339 -2451898.201590997)
2414,CÓRREGO RICO ,61912500,1,435.0,61,JABOTICABAL,SÃO PAULO,DAEE-SP,-21.2897,-48.26,1980/11/01,2018/03/31,39,3.9,29,25.6,POINT (-5372278.625683382 -2426455.9314346556)
2415,FAZENDA SANTA TEREZINHA,61913500,1,907.0,61,SERTÃOZINHO,SÃO PAULO,ANA,-21.2011,-48.0431,1969/11/05,2018/06/30,50,10.9,40,20.0,POINT (-5348133.428130321 -2415873.831649006)
2416,PASSAGEM,61915000,1,17300.0,61,PITANGUEIRAS,SÃO PAULO,DAEE-SP,-21.0167,-48.1772,1931/01/01,2014/12/31,84,8.0,76,9.5,POINT (-5363061.3718457 -2393869.995943576)
2417,UHE LUIZ CARLOS BARRETO DE CARVALHO PASSAGEM,61915005,1,17300.0,61,PITANGUEIRAS,SÃO PAULO,FURNAS,-21.0169,-48.1783,1993/06/01,2016/12/31,24,1.3,21,12.5,POINT (-5363183.823285572 -2393893.8464921466)
2418,VIRADOURO,61916000,1,144.0,61,VIRADOURO,SÃO PAULO,DAEE-SP,-20.8853,-48.2717,1980/07/01,2009/04/30,30,15.9,20,33.3,POINT (-5373581.063725664 -2378207.081647812)
2419,MORRO AGUDO,61917000,1,263.0,61,MORRO AGUDO,SÃO PAULO,DAEE-SP,-20.7367,-48.0528,1980/07/24,1999/11/05,20,9.7,10,50.0,POINT (-5349213.227191016 -2360510.424922108)
2420,FAZENDA VERA PAZ,61921000,1,688.0,61,JABORANDI,SÃO PAULO,DAEE-SP,-20.7522,-48.4347,1980/08/01,1996/08/31,17,0.5,15,11.8,POINT (-5391726.140724967 -2362355.4937249646)
2421,FAZENDA SÃO JORGE DOS COQUEIRO,61923000,1,178.0,61,JABORANDI,SÃO PAULO,DAEE-SP,-20.5872,-48.3572,1980/11/01,2018/04/30,39,43.2,15,61.5,POINT (-5383098.880188488 -2342724.113965394)
2422,FAZENDA SANTA INEZ,61924200,1,6.2,61,COLINA,SÃO PAULO,DAEE-SP,-20.6883,-48.5711,2005/05/18,2008/04/05,4,17.6,0,100.0,POINT (-5406910.119269171 -2354750.264278587)
2423,FAZENDA SANTO EXPEDITO,61924300,1,19.2,61,BARRETOS,SÃO PAULO,DAEE-SP,-20.6222,-48.6144,2005/05/17,2008/07/15,4,0.1,1,75.0,POINT (-5411730.253220519 -2346886.5654499396)
2424,FAZENDA FLORIDA - MONT. CAPTAÇÃO,61924400,1,52.7,61,BARRETOS,SÃO PAULO,DAEE-SP,-20.6158,-48.5969,2003/07/12,2006/03/29,4,26.8,0,100.0,POINT (-5409782.162131636 -2346125.360027369)
2425,PONTE DA AMIZADE,61924700,1,98.6,61,BARRETOS,SÃO PAULO,DAEE-SP,-20.6036,-48.5631,2007/05/08,2008/12/31,2,2.8,0,100.0,POINT (-5406019.563342824 -2344674.4007817227)
2426,ADPM,61924800,1,7.4,61,BARRETOS,SÃO PAULO,DAEE-SP,-20.5875,-48.5692,2003/07/16,2009/03/18,7,1.8,1,85.7,POINT (-5406698.612236663 -2342759.788060444)
2427,CAPTAÇÃO DE BARRETOS - PONTE,61924850,1,117.0,61,BARRETOS,SÃO PAULO,DAEE-SP,-20.5867,-48.5517,2007/07/12,2008/04/22,2,0.0,0,100.0,POINT (-5404750.52114778 -2342664.657296225)
2428,FRIGORIFICO B.F. JUSANTE,61924900,1,119.0,61,BARRETOS,SÃO PAULO,DAEE-SP,-20.5864,-48.5419,2003/07/10,2009/01/31,7,4.2,1,85.7,POINT (-5403659.590138006 -2342628.9833882707)
2429,UHE MARIMBONDO USINA MANDU,61924950,1,,61,GUAÍRA,SÃO PAULO,FURNAS,-20.4872,-48.4242,2013/12/05,2016/12/31,4,0.0,3,25.0,POINT (-5390557.286071638 -2330836.650781114)
2430,PONTE JOAQUIM JUSTINO,61925000,1,34200.0,61,GUAÍRA,SÃO PAULO,FURNAS,-20.4536,-48.4503,1993/06/01,2018/06/30,26,1.2,23,11.5,POINT (-5393462.724781342 -2326844.20478465)
2431,PONTE JOAQUIM JUSTINO,61930000,1,34300.0,61,GUAÍRA,SÃO PAULO,ANA,-20.4581,-48.4536,1937/07/16,1979/12/31,43,54.8,17,60.5,POINT (-5393830.07910096 -2327378.856697793)
2432,SÍTIO SANTA ALBERTINA,61935000,1,243.0,61,COLÔMBIA,SÃO PAULO,DAEE-SP,-20.3131,-48.6206,2007/05/17,2012/02/12,6,15.4,2,66.7,POINT (-5412420.434063437 -2310159.040464692)
2433,FAZENDA CONTINENTAL ,61936000,1,428.0,61,COLÔMBIA,SÃO PAULO,DAEE-SP,-20.2333,-48.6667,1980/08/01,1993/07/31,14,5.8,9,35.7,POINT (-5417552.262589007 -2300689.0913549317)
2434,COLÔMBIA,61937000,1,113000.0,61,COLÔMBIA,SÃO PAULO,ANA,-20.1667,-48.6833,1960/05/16,1963/08/01,4,0.0,2,50.0,POINT (-5419400.166136175 -2292789.321790932)
2436,CACHOEIRA DOS ÍNDIOS,61945000,1,139000.0,61,INDIAPORÃ,SÃO PAULO,ANA,-19.8167,-50.3833,1952/10/01,1958/08/15,7,28.4,3,57.1,POINT (-5608643.30048474 -2251329.121126407)
2438,PARAÍSO/MONTE AZUL PAULISTA,61953001,1,580.0,61,PARAÍSO,SÃO PAULO,DAEE-SP,-20.9917,-48.7075,1971/10/01,2018/05/31,48,0.4,40,16.7,POINT (-5422094.0978133725 -2390888.929140157)
2439,PALMARES PAULISTA,61956001,1,623.0,61,PALMARES PAULISTA,SÃO PAULO,DAEE-SP,-21.0772,-48.8008,1970/03/14,2017/12/31,48,1.3,43,10.4,POINT (-5432480.206304384 -2401086.247249036)
2440,SÃO BENEDITO,61960000,1,2070.0,61,OLÍMPIA,SÃO PAULO,DAEE-SP,-20.8561,-48.9725,1964/01/01,2018/04/06,55,31.5,27,50.9,POINT (-5451593.762873589 -2374728.298298774)
2441,CATIGUÁ,61964000,1,430.0,61,CATIGUÁ,SÃO PAULO,DAEE-SP,-21.0514,-49.0628,1969/09/05,2001/04/30,33,3.1,21,36.4,POINT (-5461645.912892223 -2398008.5451001134)
2442,PONTE OLIMPIA / BARRETOS,61970001,1,564.0,61,OLÍMPIA,SÃO PAULO,DAEE-SP,-20.6833,-48.9,1969/11/05,1976/11/30,8,22.4,3,62.5,POINT (-5443523.099791077 -2354155.3111519055)
2443,SOTERO,61974000,1,4860.0,61,ONDA VERDE,SÃO PAULO,DAEE-SP,-20.5608,-49.1681,1969/10/01,2018/04/30,50,14.8,33,34.0,POINT (-5473367.855272754 -2339585.0682119313)
2444,INGAS,61977000,1,5460.0,61,NOVA GRANADA,SÃO PAULO,DAEE-SP,-20.3667,-49.2833,1962/09/01,1980/06/30,19,7.4,12,36.8,POINT (-5486191.860612139 -2316522.5485969055)
2445,FAZENDA SÃO LUIZ,61990000,1,2320.0,61,COSMORAMA,SÃO PAULO,DAEE-SP,-20.2939,-49.6364,1962/10/21,2018/04/23,57,65.5,10,82.5,POINT (-5525498.772811245 -2307880.1112027736)
2446,UHE ÁGUA VERMELHA PORTO PONTAL,61991000,1,9130.0,61,RIOLÂNDIA,SÃO PAULO,AES TIETÊ,-20.1664,-49.6533,1970/07/01,1984/03/31,15,1.8,12,20.0,POINT (-5527380.072205651 -2292753.744881793)
2447,UHE ÁGUA VERMELHA BARRAMENTO,61998080,1,139000.0,61,OUROESTE,SÃO PAULO,AES TIETÊ,-19.8628,-50.3475,1990/01/01,2015/06/29,26,0.0,24,7.7,POINT (-5604658.062714341 -2256784.766742955)
2448,POPULINA,61999500,1,632.0,61,POPULINA,SÃO PAULO,DAEE-SP,-19.9578,-50.4397,1981/10/01,2007/07/31,27,2.4,20,25.9,POINT (-5614921.719765481 -2268032.4271804495)
2450,CABRITO,62015400,1,40.6,62,VOTUPORANGA,SÃO PAULO,DAEE-SP,-20.5231,-49.9978,1993/02/09,2013/12/31,21,1.2,16,23.8,POINT (-5565729.636783933 -2335103.356009856)
2451,NHANDEARA / VOTUPORANGA,62015500,1,1050.0,62,NHANDEARA,SÃO PAULO,DAEE-SP,-20.5444,-50.0103,1962/10/01,2018/06/28,57,63.6,17,70.2,POINT (-5567121.130418849 -2337635.328164548)
2452,GENERAL SALGADO,62016000,1,2350.0,62,GENERAL SALGADO,SÃO PAULO,ANA,-20.4833,-50.4167,1969/03/19,1984/03/31,16,8.2,9,43.8,POINT (-5612361.371477235 -2330373.1970238364)
2453,FAZENDA PALMERINHA ,62016500,1,3200.0,62,AURIFLAMA,SÃO PAULO,DAEE-SP,-20.5231,-50.5919,1969/09/01,2009/02/03,41,17.8,23,43.9,POINT (-5631864.546264217 -2335103.356009856)
2454,UHE ILHA SOLTEIRA  BARRAMENTO,62020080,1,377000.0,62,ILHA SOLTEIRA,SÃO PAULO,RIO PARANÁ,-20.3797,-51.3686,1931/01/01,2015/06/29,85,71.9,22,74.1,POINT (-5718326.394763353 -2318066.2695521847)
2455,USINA SALESÓPOLIS,62070000,1,95.7,62,SALESÓPOLIS,SÃO PAULO,ANA,-23.5667,-45.8667,1963/02/04,1968/12/31,6,0.0,5,16.7,POINT (-5105857.688367841 -2700696.807137534)
2456,BARRAGEM DE PONTE NOVA - JUSANTE,62070005,1,205.0,62,SALESÓPOLIS,SÃO PAULO,EMAE,-23.5667,-45.9667,1995/01/01,2015/06/29,21,4.0,11,47.6,POINT (-5116989.637447168 -2700696.807137534)
2457,ADUTORA RIO CLARO KM 78,62073000,1,119.0,62,BIRITIBA-MIRIM,SÃO PAULO,DAEE-SP,-23.6333,-45.9333,1964/09/01,1972/04/30,9,2.2,6,33.3,POINT (-5113271.566454673 -2708787.357336027)
2458,CASA GRANDE,62075000,1,87.7,62,BIRITIBA-MIRIM,SÃO PAULO,ANA,-23.6333,-45.8333,1945/04/01,1978/12/31,34,1.3,26,23.5,POINT (-5102139.617375346 -2708787.357336027)
2459,PONTE NOVA ,62085000,1,248.0,62,BIRITIBA-MIRIM,SÃO PAULO,DAEE-SP,-23.565,-46.0164,1964/09/11,1999/10/31,36,33.3,16,55.6,POINT (-5122522.216139593 -2700490.345333767)
2460,BIRITIBA-MIRIM,62087000,1,357.0,62,BIRITIBA-MIRIM,SÃO PAULO,ANA,-23.5667,-46.0167,1938/03/17,1978/12/31,41,0.0,40,2.4,POINT (-5122555.611986832 -2700696.807137534)
2461,SALESÓPOLIS,62095000,1,125.0,62,SALESÓPOLIS,SÃO PAULO,ANA,-23.5167,-45.8667,1938/03/19,1978/12/31,41,0.0,40,2.4,POINT (-5105857.688367841 -2694625.5165367294)
2462,SALESÓPOLIS ,62095050,1,118.0,62,SALESÓPOLIS,SÃO PAULO,DAEE-SP,-23.5167,-45.85,1964/09/10,1978/06/30,15,0.0,13,13.3,POINT (-5103998.652871594 -2694625.5165367294)
2463,SALESÓPOLIS,62095100,1,117.0,62,SALESÓPOLIS,SÃO PAULO,DAEE-SP,-23.5286,-45.8444,1978/12/01,2013/11/30,36,1.2,31,13.9,POINT (-5103375.263723151 -2696070.274437313)
2464,SÍTIO SAHEKI,62100000,1,210.0,62,SALESÓPOLIS,SÃO PAULO,DAEE-SP,-23.5333,-46.0167,1965/06/14,1976/05/31,12,0.0,10,16.7,POINT (-5122555.611986832 -2696640.9290919458)
2465,ESTRADA DE BIRITIBA,62107000,1,90.1,62,MOGI DAS CRUZES,SÃO PAULO,ANA,-23.5667,-46.1,1959/11/10,1978/12/31,20,0.0,19,5.0,POINT (-5131828.525569912 -2700696.807137534)
2466,BIRITIBA-MIRIM ,62107100,1,92.1,62,BIRITIBA-MIRIM,SÃO PAULO,DAEE-SP,-23.55,-46.0833,1959/11/10,1977/04/30,19,0.0,17,10.5,POINT (-5129969.490073664 -2698668.739302771)
2467,AÇOS ANHANGUERA,62110000,1,672.0,62,MOGI DAS CRUZES,SÃO PAULO,DAEE-SP,-23.5264,-46.1597,1963/08/01,2014/12/31,52,3.1,46,11.5,POINT (-5138474.29917027 -2695803.1664958694)
2468,ESTALEIRO DO DAEE,62112100,1,738.0,62,MOGI DAS CRUZES,SÃO PAULO,DAEE-SP,-23.515,-46.2039,1953/01/01,2000/08/31,48,2.6,45,6.2,POINT (-5143394.620663332 -2694419.1332118176)
2469,FAZENDA SANTO ANGELO,62120000,1,138.0,62,MOGI DAS CRUZES,SÃO PAULO,ANA,-23.5833,-46.2167,1962/01/01,1978/12/31,17,0.0,17,0.0,POINT (-5144819.510145487 -2702712.9864032953)
2470,FAZENDA SANTO ANGELO ,62120002,1,142.0,62,MOGI DAS CRUZES,SÃO PAULO,DAEE-SP,-23.5667,-46.2167,1960/07/01,1982/03/31,23,0.6,18,21.7,POINT (-5144819.510145487 -2700696.807137534)
2471,TAIACUPEBA-AÇU ,62126000,1,97.3,62,SUZANO,SÃO PAULO,DAEE-SP,-23.6,-46.25,1960/06/24,1976/03/15,17,2.5,7,58.8,POINT (-5148526.449188902 -2704741.568653267)
2472,VARINHAS,62127000,1,109.0,62,MOGI DAS CRUZES,SÃO PAULO,ANA,-23.6,-46.2667,1963/05/01,1968/12/31,6,0.0,5,16.7,POINT (-5150385.48468515 -2704741.568653267)
2473,BAIRRO PALMEIRAS ,62128000,1,33.8,62,MOGI DAS CRUZES,SÃO PAULO,DAEE-SP,-23.6167,-46.2667,1960/06/15,1976/03/15,17,0.0,15,11.8,POINT (-5150385.48468515 -2706770.40923957)
2474,TAIACUPEBA-MIRIM,62130000,1,47.2,62,SUZANO,SÃO PAULO,DAEE-SP,-23.6333,-46.3167,1962/04/01,1976/03/15,15,0.2,11,26.7,POINT (-5155951.459224814 -2708787.357336027)
2475,RIO ABAIXO,62143000,1,1190.0,62,SUZANO,SÃO PAULO,DAEE-SP,-23.52,-46.2992,1964/10/01,1992/08/31,29,0.6,25,13.8,POINT (-5154003.368135932 -2695026.150598095)
2476,POÁ ,62148400,1,75.0,62,POÁ,SÃO PAULO,DAEE-SP,-23.5453,-46.3397,1980/07/01,1991/02/28,12,0.9,9,25.0,POINT (-5158511.807513059 -2698098.012186062)
2477,ÁGUA VERMELHA ,62148500,1,81.3,62,SUZANO,SÃO PAULO,DAEE-SP,-23.5333,-46.3333,1972/11/28,1979/03/28,8,0.3,5,37.5,POINT (-5157799.362771982 -2696640.9290919458)
2478,ERMELINDO MATARAZZO,62160000,1,1690.0,62,SÃO PAULO,SÃO PAULO,ANA,-23.4833,-46.4667,1963/01/21,1978/12/31,16,2.1,11,31.2,POINT (-5172649.3828438055 -2690571.1790195946)
2479,SÃO MIGUEL PAULISTA ,62160001,1,1640.0,62,SÃO PAULO,SÃO PAULO,DAEE-SP,-23.4833,-46.4333,1953/01/01,1969/05/31,17,0.5,15,11.8,POINT (-5168931.31185131 -2690571.1790195946)
2480,CUMBICA ,62166000,1,1690.0,62,SÃO PAULO,SÃO PAULO,DAEE-SP,-23.4833,-46.4667,1972/05/21,1980/11/30,9,1.9,5,44.4,POINT (-5172649.3828438055 -2690571.1790195946)
2481,GUAIAUNA ,62176000,1,77.6,62,SÃO PAULO,SÃO PAULO,DAEE-SP,-23.5333,-46.5333,1973/02/27,1977/04/24,5,0.9,3,40.0,POINT (-5180063.260930636 -2696640.9290919458)
2482,PENHA ,62180000,1,1910.0,62,SÃO PAULO,SÃO PAULO,DAEE-SP,-23.5,-46.55,1970/10/01,1976/10/31,7,8.3,4,42.9,POINT (-5181922.296426885 -2692598.2193217897)
2483,PONTE DAS BANDEIRAS ,62187000,1,2200.0,62,SÃO PAULO,SÃO PAULO,DAEE-SP,-23.5167,-46.6167,1963/09/01,1973/02/28,11,27.2,5,54.5,POINT (-5189347.3064627955 -2694625.5165367294)
2484,CAPUAVA ,62203000,1,42.7,62,MAUÁ,SÃO PAULO,DAEE-SP,-23.6333,-46.4667,1969/01/01,1972/08/03,4,4.3,0,100.0,POINT (-5172649.3828438055 -2708787.357336027)
2485,VILA PROSPERIDADE ,62206000,1,121.0,62,SÃO CAETANO DO SUL,SÃO PAULO,DAEE-SP,-23.6,-46.55,1969/01/01,1984/12/31,16,10.9,13,18.8,POINT (-5181922.296426885 -2704741.568653267)
2486,PARQUE SÃO DIOGO,62222000,1,35.7,62,SÃO BERNARDO DO CAM,SÃO PAULO,DAEE-SP,-23.6833,-46.55,1962/11/01,1968/07/31,7,46.0,0,100.0,POINT (-5181922.296426885 -2714864.0482833497)
2487,TAQACETUBA,62222500,1,557.0,62,SÃO PAULO,SÃO PAULO,CETESB-SP,-23.8406,-46.6586,2000/01/01,2015/06/29,16,0.1,13,18.8,POINT (-5194011.593127035 -2733996.520052025)
2488,VILA SÃO JOSÉ,62224000,1,105.0,62,SÃO CAETANO DO SUL,SÃO PAULO,DAEE-SP,-23.6333,-46.5667,1972/10/18,1976/08/31,5,20.9,0,100.0,POINT (-5183781.331923132 -2708787.357336027)
2489,MOOCA ,62239000,1,306.0,62,SÃO PAULO,SÃO PAULO,DAEE-SP,-23.55,-46.6167,1969/01/17,1980/02/28,12,0.0,10,16.7,POINT (-5189347.3064627955 -2698668.739302771)
2490,THOMAS EDISON,62250002,1,2450.0,62,SÃO PAULO,SÃO PAULO,EMAE,-23.5167,-46.6667,1967/11/01,1980/06/30,14,0.7,11,21.4,POINT (-5194913.28100246 -2694625.5165367294)
2491,VILA GALVÃO,62255000,1,110.0,62,SÃO PAULO,SÃO PAULO,DAEE-SP,-23.4594,-46.5697,1969/01/01,1983/02/28,15,28.1,5,66.7,POINT (-5184115.290395512 -2687670.651639227)
2492,BARRAGEM GUARAPIRANGA MONTANTE,62290000,1,648.0,62,SÃO PAULO,SÃO PAULO,SABESP,-23.6667,-46.7333,1931/01/01,2015/06/29,85,71.9,21,75.3,POINT (-5202327.1590892915 -2712846.329232449)
2493,EMBU-GUAÇU  ,62292300,1,129.0,62,EMBU-GUAÇU,SÃO PAULO,DAEE-SP,-23.8358,-46.8056,1981/08/01,1993/05/31,13,7.0,8,38.5,POINT (-5210375.558273645 -2733412.351302081)
2494,EMBU ,62294000,1,119.0,62,EMBU,SÃO PAULO,DAEE-SP,-23.6333,-46.8333,1972/11/01,1981/05/04,10,20.8,4,60.0,POINT (-5213459.10816862 -2708787.357336027)
2495,CAXINGUI ,62299000,1,71.2,62,SÃO PAULO,SÃO PAULO,DAEE-SP,-23.5667,-46.7,1972/10/21,1976/09/12,5,1.5,2,60.0,POINT (-5198620.220045876 -2700696.807137534)
2496,BAIXO COTIA - SABESP,62320000,1,242.0,62,CARAPICUÍBA,SÃO PAULO,DAEE-SP,-23.5333,-46.85,1965/06/01,1987/10/31,23,0.0,21,8.7,POINT (-5215318.143664867 -2696640.9290919458)
2497,SAGRADO CORAÇÃO ,62324000,1,134.0,62,JANDIRA,SÃO PAULO,DAEE-SP,-23.5167,-46.9,1971/03/01,1982/09/30,12,0.7,10,16.7,POINT (-5220884.11820453 -2694625.5165367294)
2498,SÃO JOÃO DO BARUERI,62326000,1,169.0,62,BARUERI,SÃO PAULO,EMAE,-23.5094,-46.8892,1982/09/01,1991/04/30,10,29.8,3,70.0,POINT (-5219681.867703963 -2693739.301102715)
2499,EDGARD DE SOUZA MONTANTE,62332000,1,4760.0,62,SANTANA DE PARNAÍBA,SÃO PAULO,DAEE-SP,-23.4667,-46.8833,1971/01/01,1972/08/31,2,0.0,1,50.0,POINT (-5219025.082708282 -2688556.5310583576)
2500,PCH PIRAPORA MONTANTE,62335000,1,4670.0,62,SANTANA DE PARNAÍBA,SÃO PAULO,PIRAPORA,-23.4411,-46.9089,1931/01/01,2015/06/29,85,71.9,20,76.5,POINT (-5221874.8616725905 -2685450.1006774274)
2501,QUINTA COLÔNIA ,62350000,1,389.0,62,FRANCO DA ROCHA,SÃO PAULO,DAEE-SP,-23.3167,-46.7,1963/07/11,1969/12/31,7,0.0,6,14.3,POINT (-5198620.220045876 -2670363.341731192)
2502,FRANCO DA ROCHA,62358000,1,477.0,62,FRANCO DA ROCHA,SÃO PAULO,ANA,-23.3333,-46.7333,1962/07/08,1978/12/31,17,0.0,16,5.9,POINT (-5202327.1590892915 -2672375.708574223)
2503,FRANCO DA ROCHA ,62358001,1,397.0,62,FRANCO DA ROCHA,SÃO PAULO,DAEE-SP,-23.3333,-46.7167,1980/02/01,1992/03/31,13,12.3,8,38.5,POINT (-5200479.255542124 -2672375.708574223)
2504,PERUS (CMSP)  ,62365000,1,603.0,62,SÃO PAULO,SÃO PAULO,DAEE-SP,-23.4,-46.7833,1973/05/11,1979/10/03,7,0.0,5,28.6,POINT (-5207893.133628955 -2680464.0819783336)
2505,JARDIM SANTA MARIA ,62385000,1,103.0,62,CAMPO LIMPO PAULIST,SÃO PAULO,DAEE-SP,-23.2,-46.75,1972/11/01,1978/07/09,7,1.5,4,42.9,POINT (-5204186.194585539 -2656223.2399355415)
2506,CAMPO LIMPO ,62385100,1,101.0,62,CAMPO LIMPO PAULIST,SÃO PAULO,DAEE-SP,-23.2089,-46.7464,1979/06/28,2002/12/31,24,0.0,22,8.3,POINT (-5203785.444418684 -2657301.1839675508)
2507,JUNDIAÍ,62390000,1,263.0,62,JUNDIAÍ,SÃO PAULO,ANA,-23.1833,-46.8833,1963/12/01,1991/09/30,29,36.8,16,44.8,POINT (-5219025.082708282 -2654200.7745448784)
2508,ITUPEVA,62395000,1,632.0,62,ITUPEVA,SÃO PAULO,ANA,-23.1503,-47.0578,1972/01/01,2014/12/31,43,4.7,36,16.3,POINT (-5238450.333851709 -2650205.028087539)
2509,ITAICI,62400000,1,795.0,62,INDAIATUBA,SÃO PAULO,ANA,-23.1167,-47.1833,1963/12/17,1978/12/31,16,0.0,14,12.5,POINT (-5252420.929946265 -2646137.6425709594)
2510,ITAICÁ,62400100,1,795.0,62,INDAIATUBA,SÃO PAULO,DAEE-SP,-23.1072,-47.1794,1972/09/01,2018/07/31,47,40.5,23,51.1,POINT (-5251986.783932172 -2644987.822439179)
2511,ADUTORA ,62400200,1,1110.0,62,SALTO,SÃO PAULO,DAEE-SP,-23.2,-47.2667,1979/04/18,1981/03/31,3,23.9,0,100.0,POINT (-5261704.975478424 -2656223.2399355415)
2512,TIETÊ,62410000,1,9140.0,62,TIETÊ,SÃO PAULO,ANA,-23.1,-47.7167,1939/05/20,1978/12/31,40,0.0,39,2.5,POINT (-5311798.746335397 -2644116.434002208)
2513,MONTE MOR,62420000,1,697.0,62,MONTE MOR,SÃO PAULO,ANA,-22.9589,-47.2964,1952/05/23,2016/03/31,65,2.2,57,12.3,POINT (-5265011.164354984 -2627049.0439606532)
2514,INDAIATUBA ,62423000,1,98.1,62,INDAIATUBA,SÃO PAULO,DAEE-SP,-23.0167,-47.2,1987/01/01,1988/07/31,2,0.0,1,50.0,POINT (-5254279.965442513 -2634038.3450617017)
2515,FAZENDA ITAPEVA ,62428000,1,1310.0,62,RAFARD,SÃO PAULO,DAEE-SP,-23.0175,-47.5769,1980/08/01,1996/12/31,17,0.8,10,41.2,POINT (-5296236.281522498 -2634135.1037911223)
2516,UHE ITUPARARANGA MONTANTE 2,62472800,1,165.0,62,IBIÚNA,SÃO PAULO,CBA,-23.7197,-47.1872,2013/12/12,2017/12/31,5,1.9,3,40.0,POINT (-5252855.075960359 -2719289.34222609)
2517,UHE ITUPARARANGA MONTANTE 1,62473200,1,292.0,62,IBIÚNA,SÃO PAULO,CBA,-23.6411,-47.1633,2013/12/10,2017/12/31,5,0.0,4,20.0,POINT (-5250194.540130399 -2709735.168230283)
2518,PAIOL PEQUENO ,62474000,1,325.0,62,IBIÚNA,SÃO PAULO,DAEE-SP,-23.6253,-47.1875,1980/07/29,2000/12/31,21,2.8,11,47.6,POINT (-5252888.471807597 -2707815.3022480602)
2519,RAPOSO TAVARES,62477000,1,1040.0,62,SOROCABA,SÃO PAULO,ANA,-23.5233,-47.4494,2011/06/08,2015/11/30,5,6.8,1,80.0,POINT (-5282043.046446355 -2695426.794702402)
2520,CORUMBÁ,62477100,1,2010.0,62,IPERO,SÃO PAULO,DAEE-SP,-23.3639,-47.615,1978/07/06,2018/05/31,41,1.0,36,12.2,POINT (-5300477.554121722 -2676085.9115781737)
2521,EDEN (PIRAJIBU),62478000,1,345.0,62,SOROCABA,SÃO PAULO,ANA,-23.4161,-47.4061,1969/10/07,2014/09/27,46,9.1,34,26.1,POINT (-5277222.912495006 -2682417.058025842)
2522,SALTO DE PIRAPORA,62490000,1,359.0,62,SALTO DE PIRAPORA,SÃO PAULO,ANA,-23.6381,-47.5722,1946/09/16,2014/09/30,69,1.3,64,7.2,POINT (-5295713.079915769 -2709370.6188954585)
2523,BAIRRO DO SARAPU,62496000,1,1430.0,62,ITAPETININGA,SÃO PAULO,ANA,-23.4833,-47.8,1945/08/10,1978/12/31,34,0.0,33,2.9,POINT (-5321071.659918476 -2690571.1790195946)
2524,BAIRRO SARAPU ,62496001,1,1550.0,62,TATUÍ,SÃO PAULO,DAEE-SP,-23.3994,-47.7567,1966/01/01,2018/06/30,53,6.2,44,17.0,POINT (-5316251.525967129 -2680391.304853304)
2525,UHE ITUPARARANGA JUSANTE,62510100,1,945.0,62,VOTORANTIM,SÃO PAULO,CBA,-23.5903,-47.4161,2014/01/31,2017/12/31,4,0.0,3,25.0,POINT (-5278336.107402939 -2703563.258907735)
2526,CGH SANTA HELENA JUSANTE,62512080,1,968.0,62,VOTORANTIM,SÃO PAULO,CBA,-23.5747,-47.4389,2013/12/28,2017/12/31,5,15.2,1,80.0,POINT (-5280874.1917930255 -2701668.4279750786)
2527,PCH VOTORANTIM JUSANTE,62512092,1,1065.0,62,VOTORANTIM,SÃO PAULO,CBA,-23.5414,-47.3944,2013/12/15,2017/12/31,5,0.3,3,40.0,POINT (-5275920.474452725 -2697624.445597945)
2528,VOTORANTIN ,62515000,1,1040.0,62,VOTORANTIM,SÃO PAULO,DAEE-SP,-23.5333,-47.45,1978/08/01,1983/08/31,6,16.4,3,50.0,POINT (-5282109.838140831 -2696640.9290919458)
2529,AMERICANA VELHA,62538000,1,3940.0,62,TATUÍ,SÃO PAULO,ANA,-23.3192,-47.7789,2011/12/08,2014/03/29,4,94.0,0,100.0,POINT (-5318722.818662738 -2670666.3929491634)
2530,FAZENDA CACHOEIRINHA,62540000,1,4410.0,62,TATUÍ,SÃO PAULO,ANA,-23.2311,-47.7842,1943/01/01,1983/12/07,41,3.8,37,9.8,POINT (-5319312.811963943 -2659990.3011701694)
2531,FAZENDA ZÍLIA ,62543000,1,322.0,62,TATUÍ,SÃO PAULO,DAEE-SP,-23.35,-47.8,1972/09/27,1975/04/28,4,1.2,1,75.0,POINT (-5321071.659918476 -2674400.4518977026)
2532,BAIRRO ENTRE RIOS,62545000,1,5210.0,62,LARANJAL PAULISTA,SÃO PAULO,DAEE-SP,-23.0167,-47.8167,1943/07/03,2018/05/31,76,36.6,39,48.7,POINT (-5322930.695414725 -2634038.3450617017)
2533,LARANJAL PAULISTA,62555000,1,5200.0,62,LARANJAL PAULISTA,SÃO PAULO,ANA,-23.0333,-47.8167,1969/01/01,1978/12/31,10,0.0,10,0.0,POINT (-5322930.695414725 -2636046.2063374524)
2534,PCH SAN JUAN JUSANTE,62557000,1,5050.0,62,CERQUILHO,SÃO PAULO,FLP,-23.1461,-47.7956,2015/05/21,2018/12/31,4,4.6,2,50.0,POINT (-5320581.854158986 -2649696.549156184)
2538,GUARIPOCABA,62597000,1,1350.0,62,BRAGANÇA PAULISTA,SÃO PAULO,DAEE-SP,-22.9,-46.4667,1971/02/01,2018/07/31,48,19.6,32,33.3,POINT (-5172649.3828438055 -2619929.8004916054)
2539,RIO ABAIXO (FAZ. CACHOEIRA),62600000,1,1690.0,62,BRAGANÇA PAULISTA,SÃO PAULO,ANA,-22.8831,-46.6319,1972/04/07,2014/12/31,43,0.0,42,2.3,POINT (-5191039.362722854 -2617887.6684532324)
2540,BUENÓPOLIS,62605000,1,1950.0,62,MORUNGABA,SÃO PAULO,DAEE-SP,-22.8506,-46.7797,1930/02/01,2018/07/31,89,8.5,76,14.6,POINT (-5207492.383462099 -2613961.205762819)
2541,PCH MACACO BRANCO JUSANTE,62610000,1,2090.0,62,PEDREIRA,SÃO PAULO,CPFL GERAÇÃO,-22.7878,-46.9008,2016/04/13,2018/12/31,3,15.1,0,100.0,POINT (-5220973.173797165 -2606376.72884882)
2542,JAGUARIÚNA,62615000,1,2180.0,62,JAGUARIUNA,SÃO PAULO,ANA,-22.7086,-46.9869,1930/07/03,2014/12/31,85,0.0,84,1.2,POINT (-5230557.781954465 -2596816.5692420886)
2543,FORMIGA ,62620000,1,102.0,62,MONTE ALEGRE DO SUL,SÃO PAULO,DAEE-SP,-22.7278,-46.4383,1971/11/08,1996/12/11,26,0.0,24,7.7,POINT (-5169487.909305276 -2599133.675068774)
2544,MONTE ALEGRE DO SUL,62622000,1,387.0,62,MONTE ALEGRE DO SUL,SÃO PAULO,DAEE-SP,-22.6869,-46.6786,1944/05/22,2018/07/31,75,0.1,71,5.3,POINT (-5196237.9829429 -2594198.1480426574)
2545,AMPARO,62625000,1,663.0,62,AMPARO,SÃO PAULO,ANA,-22.7114,-46.7808,1938/11/17,2014/12/31,77,0.7,71,7.8,POINT (-5207614.834901972 -2597154.460263232)
2546,FAZENDA BARRA,62628000,1,928.0,62,JAGUARIUNA,SÃO PAULO,DAEE-SP,-22.6756,-46.9675,1943/01/09,2018/07/31,76,9.6,60,21.1,POINT (-5228398.183833077 -2592834.802553723)
2547,USINA ESTER,62632000,1,3400.0,62,COSMÓPOLIS,SÃO PAULO,DAEE-SP,-22.6572,-47.2147,1943/05/01,2018/07/31,76,0.6,72,5.3,POINT (-5255916.361957174 -2590615.0821113153)
2548,QUEBRA POPA,62635000,1,4000.0,62,AMERICANA,SÃO PAULO,CPFL-FERROLIGAS,-22.6667,-47.2333,1960/01/01,1974/07/31,15,3.5,13,13.3,POINT (-5257986.904485929 -2591761.0962538803)
2549,FOZ DO JAGUARI,62635150,1,4045.0,62,LIMEIRA,SÃO PAULO,DAEE-SP,-22.6744,-47.2797,2009/01/01,2014/06/05,6,0.0,5,16.7,POINT (-5263152.128858737 -2592690.029101257)
2550,NAZARÉ PAULISTA,62655800,1,17.0,62,NAZARÉ PAULISTA,SÃO PAULO,ANA,-23.2103,-46.3553,2014/07/24,2019/10/31,6,5.5,2,66.7,POINT (-5160248.391569435 -2657470.754731797)
2551,NAZARÉ PAULISTA,62660000,1,315.0,62,NAZARÉ PAULISTA,SÃO PAULO,ANA,-23.1833,-46.3833,1952/08/14,1972/08/01,21,0.5,17,19.0,POINT (-5163365.337311646 -2654200.7745448784)
2552,NAZARÉ PAULISTA,62662000,1,358.0,62,NAZARÉ PAULISTA,SÃO PAULO,DAEE-SP,-23.1664,-46.4161,1971/01/01,2018/07/31,48,20.3,30,37.5,POINT (-5167016.616609666 -2652154.3449994917)
2553,JOANÓPOLIS,62663800,1,121.0,62,JOANÓPOLIS,SÃO PAULO,ANA,-22.9347,-46.2117,2013/06/01,2019/10/31,7,7.7,3,57.1,POINT (-5144262.9126915205 -2624123.6150394375)
2554,PIRACAIA,62665000,1,431.0,62,PIRACAIA,SÃO PAULO,ANA,-23.0517,-46.3653,1972/01/01,2014/12/31,43,3.9,39,9.3,POINT (-5161361.586477367 -2638272.0765476106)
2555,CRAVORANA ,62665100,1,407.0,62,PIRACAIA,SÃO PAULO,DAEE-SP,-23.0333,-46.3333,1971/01/01,1993/09/30,23,0.4,21,8.7,POINT (-5157799.362771982 -2636046.2063374524)
2556,CAPTAÇÃO DE PIRACAIA,62665900,1,406.0,62,PIRACAIA,SÃO PAULO,DAEE-SP,-23.0475,-46.3264,2009/01/01,2014/06/05,6,4.3,0,100.0,POINT (-5157031.2582855085 -2637763.970695196)
2557,ATIBAIA,62669900,1,1143.0,62,ATIBAIA,SÃO PAULO,DAEE-SP,-23.1053,-46.5558,2009/01/01,2014/06/05,6,1.0,1,83.3,POINT (-5182567.949473485 -2644757.868175416)
2558,ATIBAIA,62670000,1,1140.0,62,ATIBAIA,SÃO PAULO,ANA,-23.1056,-46.5569,1962/01/01,2014/12/31,53,0.8,51,3.8,POINT (-5182690.400913358 -2644794.1765270773)
2559,ITATIBA,62675100,1,1930.0,62,ITATIBA,SÃO PAULO,ANA,-22.9833,-46.8333,1945/12/15,1978/12/31,34,0.1,31,8.8,POINT (-5213459.10816862 -2629999.1799772745)
2560,BAIRRO DA PONTE,62676000,1,1930.0,62,ITATIBA,SÃO PAULO,DAEE-SP,-22.9831,-46.8294,1929/10/01,2018/07/31,90,0.0,88,2.2,POINT (-5213024.962154525 -2629974.996369381)
2561,NOSSA SENHORA DAS GRAÇAS ,62676100,1,95.0,62,ITATIBA,SÃO PAULO,DAEE-SP,-22.9833,-46.8333,1976/12/01,1987/07/31,12,17.2,7,41.7,POINT (-5213459.10816862 -2629999.1799772745)
2562,CAPTAÇÃO DE VALINHOS,62678150,1,2152.0,62,VALINHOS,SÃO PAULO,DAEE-SP,-22.9283,-46.9392,2009/01/01,2014/06/05,6,2.3,4,33.3,POINT (-5225247.842243627 -2623350.035325226)
2563,DESEMBARGADOR FURTADO,62680000,1,2490.0,62,CAMPINAS,SÃO PAULO,DAEE-SP,-22.7694,-46.9894,1944/05/01,2018/07/31,75,7.3,62,17.3,POINT (-5230836.08068145 -2604155.1873521)
2564,ACIMA DE PAULÍNEA,62690000,1,2730.0,62,LAVÍNIA,SÃO PAULO,DAEE-SP,-22.7444,-47.1361,1947/11/01,2018/07/31,72,12.8,51,29.2,POINT (-5247166.649980823 -2601137.2683170796)
2565,CARIOBA,62695000,1,7600.0,62,AMERICANA,SÃO PAULO,DAEE-SP,-22.7167,-47.35,1929/12/01,2016/07/20,88,34.7,45,48.9,POINT (-5270977.889061503 -2597794.058619181)
2566,PIRACICABA,62707000,1,8900.0,62,PIRACICABA,SÃO PAULO,ANA,-22.7167,-47.65,1931/08/01,1978/12/31,48,0.3,43,10.4,POINT (-5304373.736299486 -2597794.058619181)
2567,PCH LUIZ QUEIROZ JUSANTE,62707500,1,9050.0,62,PIRACICABA,SÃO PAULO,FLP,-22.7003,-47.7108,2016/12/07,2018/12/31,3,5.0,0,100.0,POINT (-5311141.961339717 -2595815.004312522)
2568,BATOVI,62708000,1,452.0,62,RIO CLARO,SÃO PAULO,DAEE-SP,-22.3928,-47.6022,1970/08/06,2014/10/02,45,51.9,17,62.2,POINT (-5299052.664639568 -2558751.369643454)
2569,RECREIO ,62709000,1,1580.0,62,PIRACICABA,SÃO PAULO,DAEE-SP,-22.5814,-47.6836,1972/10/26,2018/05/31,47,3.3,29,38.3,POINT (-5308114.071190139 -2581473.9332494726)
2570,ARTEMIS,62715000,1,10900.0,62,PIRACICABA,SÃO PAULO,DAEE-SP,-22.6792,-47.7753,1943/06/01,2018/07/31,76,0.1,73,3.9,POINT (-5318322.068495883 -2593269.1305125947)
2571,SÃO JOÃO,62721000,1,588.0,62,CONCHAS,SÃO PAULO,DAEE-SP,-23.0956,-48.2578,1971/01/01,2018/06/30,48,1.3,40,16.7,POINT (-5372033.722803637 -2643583.941839733)
2572,BARRA BONITA,62725000,1,33000.0,62,BARRA BONITA,SÃO PAULO,ANA,-22.5,-48.5667,1930/07/08,1966/07/31,37,0.0,35,5.4,POINT (-5406420.313509679 -2571663.0471736453)
2573,USINA LENÇÓIS,62728000,1,944.0,62,MACATUBA,SÃO PAULO,DAEE-SP,-22.5167,-48.65,1960/01/01,1980/12/31,21,8.7,14,33.3,POINT (-5415693.22709276 -2573675.3742007357)
2574,USINA LENÇÓIS,62728001,1,935.0,62,BARRA BONITA,SÃO PAULO,ANA,-22.5167,-48.65,1984/06/25,1987/12/22,4,4.7,2,50.0,POINT (-5415693.22709276 -2573675.3742007357)
2575,UHE BARRA BONITA BARRAMENTO,62729080,1,32800.0,62,BARRA BONITA,SÃO PAULO,AES TIETÊ,-22.5194,-48.5344,1995/01/01,2015/06/29,21,0.1,19,9.5,POINT (-5402824.693957056 -2574000.743315652)
2576,JAÚ,62742000,1,397.0,62,JAÚ,SÃO PAULO,DAEE-SP,-22.3006,-48.5417,1981/05/08,2016/12/30,36,33.3,15,58.3,POINT (-5403637.326239848 -2547654.3244387605)
2577,UHE BARIRI BARRAMENTO,62744080,1,36400.0,62,BORACÉIA,SÃO PAULO,AES TIETÊ,-22.1533,-48.7525,1995/01/01,2015/06/29,21,0.1,19,9.5,POINT (-5427103.474899069 -2529940.707408765)
2578,ACIMA DA REPRESA,62750500,1,113.0,62,BARIRI,SÃO PAULO,DAEE-SP,-22.4,-46.1667,1938/11/01,1948/09/30,11,0.0,9,18.2,POINT (-5139253.535605823 -2559618.2595014037)
2579,SÍTIO BRAGA  ,62751000,1,546.0,62,BROTAS,SÃO PAULO,DAEE-SP,-22.3,-48.1333,1939/04/16,1958/04/15,20,1.0,17,15.0,POINT (-5358174.446199874 -2547582.1334137623)
2580,BROTAS,62751100,1,532.0,62,BROTAS,SÃO PAULO,DAEE-SP,-22.2919,-48.1164,1980/10/29,2018/05/31,39,29.3,17,56.4,POINT (-5356293.146805468 -2546607.584918158)
2581,FAZENDA PAU D'ALHO ,62754000,1,2450.0,62,ITAJU,SÃO PAULO,DAEE-SP,-21.8833,-48.7333,1970/12/17,1979/01/29,10,0.3,7,30.0,POINT (-5424966.140675839 -2497519.758862875)
2582,RIBEIRÃO DO FEIJÃO,62760005,1,229.0,62,SÃO CARLOS,SÃO PAULO,ANA,-22.1544,-47.8814,1977/01/01,2014/12/31,38,2.3,36,5.3,POINT (-5330133.066469049 -2530072.9194525294)
2583,SIRIEMA,62760050,1,28.9,62,BROTAS,SÃO PAULO,ANA,-22.2667,-47.9,1977/01/01,1990/02/28,14,0.0,13,7.1,POINT (-5332203.608997804 -2543576.0173453963)
2584,MINERAÇÃO,62760070,1,53.3,62,ITIRAPINA,SÃO PAULO,ANA,-22.2497,-47.8631,1977/01/01,1985/04/23,9,0.0,8,11.1,POINT (-5328095.919787533 -2541531.220630819)
2585,CÓRREGO DO GERALDO,62760090,1,17.0,62,ITAPIRA,SÃO PAULO,ANA,-22.2056,-47.8694,1989/01/01,1991/09/30,3,0.0,2,33.3,POINT (-5328797.232579529 -2536227.9338023216)
2586,CÓRREGO DAS PERDIZES,62760110,1,11.6,62,BROTAS,SÃO PAULO,ANA,-22.1886,-47.9061,1977/01/20,1995/12/31,19,0.0,18,5.3,POINT (-5332882.657891643 -2534184.027992954)
2587,JACARÉ-AÇU 1,62760130,1,218.0,62,ITIRAPINA,SÃO PAULO,ANA,-22.165,-47.9019,1977/01/20,2014/12/31,38,2.0,36,5.3,POINT (-5332415.116030311 -2531347.0157579132)
2588,JACARÉ-AÇU 2,62760150,1,219.0,62,BROTAS,SÃO PAULO,ANA,-22.1583,-47.9003,1977/03/18,2014/12/31,38,2.0,36,5.3,POINT (-5332237.004845042 -2530541.679572331)
2589,USINA SANTA MARIA (ORQUÍDEA),62761800,1,45.1,62,SERTÃOZINHO,SÃO PAULO,ANA,-21.1803,-47.9567,1985/05/01,1990/05/31,6,11.8,2,66.7,POINT (-5338515.424125782 -2413390.467301023)
2590,PONTE PRETA,62763000,1,773.0,62,SÃO CARLOS,SÃO PAULO,ANA,-22.0833,-48.05,1978/03/01,1979/01/31,2,14.5,0,100.0,POINT (-5348901.532616795 -2521529.3363144095)
2591,VALE DA FERTILIDADE,62763500,1,587.0,62,BROTAS,SÃO PAULO,ANA,-22.1167,-47.9833,1978/06/14,1989/12/31,12,1.4,10,16.7,POINT (-5341476.5225808835 -2525542.2409766233)
2592,FAZENDA PAINEIRA ,62765000,1,614.0,62,SÃO CARLOS,SÃO PAULO,DAEE-SP,-22.0833,-47.9833,1969/09/01,1974/12/10,6,0.5,3,50.0,POINT (-5341476.5225808835 -2521529.3363144095)
2593,FAZENDA SANTO INÁCIO,62767500,1,795.0,62,RIBEIRÃO BONITO,SÃO PAULO,ANA,-22.0617,-48.0903,1987/05/01,2014/12/31,28,2.4,25,10.7,POINT (-5353387.708095764 -2518934.669851008)
2594,ALFREDO MAFFEI,62768000,1,17.8,62,SÃO CARLOS,SÃO PAULO,ANA,-22.0167,-47.9,1980/02/19,1984/05/31,5,10.1,1,80.0,POINT (-5332203.608997804 -2513530.387311895)
2595,SÍTIO DO SWAMI,62768500,1,136.0,62,SÃO CARLOS,SÃO PAULO,ANA,-22.0333,-47.9667,1978/02/01,1991/12/31,14,40.2,6,57.1,POINT (-5339628.619033716 -2515523.7670999505)
2596,FAZENDA SÃO JOSÉ,62770500,1,1070.0,62,SÃO CARLOS,SÃO PAULO,ANA,-22.0594,-48.09,1987/05/01,2014/12/31,28,6.1,21,25.0,POINT (-5353354.312248526 -2518658.409282533)
2597,FAZENDA PALMEIRAS,62772500,1,411.0,62,ARARAQUARA,SÃO PAULO,DAEE-SP,-21.865,-48.2803,1969/06/17,2018/05/31,50,7.4,37,26.0,POINT (-5374538.411346486 -2495324.5681867036)
2598,USINA ZANIN,62775100,1,283.0,62,ARARAQUARA,SÃO PAULO,ANA,-21.8667,-48.1833,1981/10/01,1989/09/30,9,52.7,2,77.8,POINT (-5363740.420739538 -2495528.4811453726)
2599,FAZENDA DO PORTO,62776600,1,2170.0,62,BOA ESPERANÇA DO SU,SÃO PAULO,ANA,-21.8572,-48.3894,1980/01/01,2014/12/31,35,13.6,21,40.0,POINT (-5386683.367792033 -2494388.998674584)
2600,BOA ESPERANÇA DO SUL,62776900,1,187.0,62,BOA ESPERANÇA DO SU,SÃO PAULO,DAEE-SP,-21.9917,-48.3881,1980/11/26,2018/05/31,39,2.9,30,23.1,POINT (-5386538.652454001 -2510528.7499147984)
2601,FAZENDA CANDOCA,62777000,1,2430.0,62,ARARAQUARA,SÃO PAULO,DAEE-SP,-21.9167,-48.4667,1960/01/01,1961/11/30,2,0.0,1,50.0,POINT (-5395288.364430353 -2501527.0080369953)
2602,ESTÂNCIA RECREIO,62777100,1,263.0,62,BOA ESPERANÇA DO SU,SÃO PAULO,ANA,-21.95,-48.4333,1978/06/15,1989/09/30,12,0.0,10,16.7,POINT (-5391570.293437857 -2505523.1952016787)
2603,PESQUEIRO,62777300,1,2880.0,62,ARARAQUARA,SÃO PAULO,ANA,-21.85,-48.5333,1979/08/24,1989/03/20,11,2.6,6,45.5,POINT (-5402702.242517184 -2493525.4413931607)
2604,MEIA LEGUA ,62777500,1,336.0,62,NOVA EUROPA,SÃO PAULO,DAEE-SP,-21.7875,-48.5611,1981/06/15,2018/03/31,38,19.9,26,31.6,POINT (-5405796.924361237 -2486031.110746389)
2605,FAZENDA BOA VISTA DE JACARÉ,62778000,1,3520.0,62,IBITINGA,SÃO PAULO,DAEE-SP,-21.8128,-48.8033,1970/11/24,2007/06/06,38,37.8,14,63.2,POINT (-5432758.505031368 -2489064.4215572216)
2606,SÍTIO ESPERANÇA ,62781000,1,338.0,62,IBITINGA,SÃO PAULO,DAEE-SP,-21.7833,-48.45,1980/11/26,2018/05/31,39,1.1,33,15.4,POINT (-5393429.328934104 -2485527.609006112)
2607,PORTO MONÇÕES,62788000,1,44700.0,62,IBITINGA,SÃO PAULO,DAEE-SP,-21.75,-48.9667,1953/11/01,1963/11/30,11,23.1,5,54.5,POINT (-5450948.1098269895 -2481536.081273684)
2608,UHE IBITINGA BARRAMENTO,62790080,1,44600.0,62,IBITINGA,SÃO PAULO,AES TIETÊ,-21.7575,-48.9914,1995/01/01,2015/06/29,21,0.1,19,9.5,POINT (-5453697.701249583 -2482434.9932004493)
2609,FAZENDA SANTA HELOISA,62795000,1,1360.0,62,BORBOREMA,SÃO PAULO,DAEE-SP,-21.5667,-48.9667,1971/01/01,1975/03/05,5,0.1,3,40.0,POINT (-5450948.1098269895 -2459581.2181053213)
2610,ITÁPOLIS ,62796000,1,26.0,62,ITÁPOLIS,SÃO PAULO,DAEE-SP,-21.6,-48.8167,1985/06/24,1989/03/07,5,18.1,2,60.0,POINT (-5434250.186207998 -2463567.673849856)
2611,FAZENDA NOSSA SENHORA APARECIDA ,62798000,1,952.0,62,ITÁPOLIS,SÃO PAULO,DAEE-SP,-21.6489,-48.8731,1980/09/23,2018/05/31,39,28.6,18,53.8,POINT (-5440528.605488738 -2469423.321700945)
2612,PORTO JOÃO PASSOS,62805000,1,47700.0,62,BORBOREMA,SÃO PAULO,DAEE-SP,-21.7333,-49.15,1943/09/23,1959/04/30,17,9.6,13,23.5,POINT (-5471352.972489396 -2479534.6726571666)
2613,REGINÓPOLIS,62810000,1,1900.0,62,REGINÓPOLIS,SÃO PAULO,DAEE-SP,-21.8906,-49.2389,1943/08/01,2018/05/31,76,28.5,45,40.8,POINT (-5481249.2752209185 -2498395.51458212)
2614,REGINÓPOLIS,62813000,1,1960.0,62,REGINÓPOLIS,SÃO PAULO,ANA,-21.8833,-49.2333,1952/06/05,1978/12/31,27,1.4,24,11.1,POINT (-5480625.886072475 -2497519.758862875)
2615,UHE PROMISSÃO BARRAMENTO,62820080,1,57700.0,62,PROMISSÃO,SÃO PAULO,AES TIETÊ,-21.2967,-49.7839,1995/01/01,2014/10/29,20,0.0,19,5.0,POINT (-5541918.397703253 -2427292.260427765)
2616,UHE NOVA AVANHANDAVA RIBEIRÃO DOS PATOS,62823000,1,549.9,62,PROMISSÃO,SÃO PAULO,AES TIETÊ,-21.3572,-49.8444,2015/02/05,2018/12/31,4,4.1,2,50.0,POINT (-5548653.226896246 -2434522.1939738)
2617,UHE NOVA AVANHANDAVA RIBEIRÃO DA CORREDEIRA,62824000,1,419.37,62,JOSÉ BONIFÁCIO,SÃO PAULO,AES TIETÊ,-21.2039,-49.8792,2015/02/05,2018/12/31,4,0.0,3,25.0,POINT (-5552527.145175851 -2416208.1573944474)
2618,UHE NOVA AVANHANDAVA BARRAMENTO,62829580,1,62300.0,62,BURITAMA,SÃO PAULO,AES TIETÊ,-21.1156,-50.2025,1995/01/01,2015/06/29,21,0.1,19,9.5,POINT (-5588516.736549316 -2405668.002677585)
2619,PORTO SÃO LUÍS,62845000,1,62500.0,62,BURITAMA,SÃO PAULO,DAEE-SP,-21.1172,-50.2453,1970/10/01,1979/10/31,10,0.0,8,20.0,POINT (-5593281.210755268 -2405858.9348732545)
2620,ARAÇATUBA ,62860000,1,459.0,62,ARAÇATUBA,SÃO PAULO,DAEE-SP,-21.2333,-50.4333,1981/02/25,2006/12/19,26,2.1,18,30.8,POINT (-5614209.275024404 -2419718.9606086365)
2621,PORTO PIO PRADO,62870000,1,65400.0,62,ARAÇATUBA,SÃO PAULO,DAEE-SP,-21.05,-50.4833,1954/09/25,1979/10/04,26,36.0,15,42.3,POINT (-5619775.249564067 -2397841.553270535)
2622,GUZOLÂNDIA ,62880000,1,105.0,62,GUZOLÂNDIA,SÃO PAULO,DAEE-SP,-20.7,-50.7167,1981/02/18,2018/05/31,38,5.7,33,13.2,POINT (-5645757.218715218 -2356142.531225169)
2623,LUSSANVIRA,62885000,1,70300.0,62,PEREIRA BARRETO,SÃO PAULO,ANA,-20.665,-51.1647,1937/10/01,1978/12/31,42,0.0,41,2.4,POINT (-5695628.350590604 -2351977.9498185976)
2624,UHE TRÊS IRMÃOS BARRAMENTO,62900080,1,71000.0,62,ANDRADINA,SÃO PAULO,TIJOÁ,-20.6711,-51.2986,1995/01/01,2015/06/29,21,0.1,19,9.5,POINT (-5710534.030407824 -2352703.7077730224)
2638,UHE JUPIÁ BARRAMENTO,63007080,1,476000.0,63,CASTILHO,SÃO PAULO,RIO PARANÁ,-20.7814,-51.6333,1931/01/01,2015/06/29,85,71.9,22,74.1,POINT (-5747792.663976332 -2365831.8791950233)
2639,UHE JUPIÁ JUSANTE,63010000,1,477000.0,63,CASTILHO,SÃO PAULO,RIO PARANÁ,-20.8553,-51.635,1963/07/01,1999/02/28,37,0.0,35,5.4,POINT (-5747981.907110681 -2374632.9986766144)
2640,ANDRADINA / N. INDEPEN. ,63050000,1,391.0,63,ANDRADINA,SÃO PAULO,DAEE-SP,-21.0,-51.4167,1985/12/01,2018/05/31,34,12.3,13,61.8,POINT (-5723680.862270509 -2391878.5879443143)
2641,NOVA FÁTIMA  ,63100000,1,1090.0,63,GUAIMBÊ,SÃO PAULO,DAEE-SP,-21.7803,-49.8092,1944/10/01,1997/12/31,54,13.3,40,25.9,POINT (-5544734.780820321 -2485167.9739365485)
2642,MACUCO / QUEIROZ ,63140000,1,1400.0,63,QUEIROZ,SÃO PAULO,DAEE-SP,-21.8,-50.15,1970/05/27,1995/03/23,26,54.9,7,73.1,POINT (-5582672.463282669 -2487529.7151387963)
2643,FAZENDA BOM RETIRO,63160000,1,3650.0,63,POMPÉIA,SÃO PAULO,DAEE-SP,-21.7144,-50.2908,1946/08/01,2011/01/31,66,2.5,57,13.6,POINT (-5598346.247586362 -2477269.8858965943)
2644,RINÓPOLIS ,63165000,1,6220.0,63,RINÓPOLIS,SÃO PAULO,DAEE-SP,-21.65,-50.6333,1970/06/10,2000/12/31,31,3.7,27,12.9,POINT (-5636473.173183058 -2469555.066636166)
2645,SALTO CARLOS BOTELHO,63170000,1,7660.0,63,LUCÉLIA,SÃO PAULO,ANA,-21.45,-50.9167,1969/01/01,1978/12/31,10,0.0,9,10.0,POINT (-5668021.1168738725 -2445617.881734507)
2646,VALPARAÍSO / ADAMANTINA,63180000,1,8650.0,63,VALPARAÍSO,SÃO PAULO,DAEE-SP,-21.4314,-51.015,1970/06/01,2002/09/30,33,11.6,26,21.2,POINT (-5678963.822818851 -2443393.3968091207)
2651,BAIRRO SÃO GERALDO,63650000,1,736.0,63,MARÍLIA,SÃO PAULO,DAEE-SP,-22.3064,-50.0317,1967/01/01,2018/05/31,52,18.3,31,40.4,POINT (-5569503.367521825 -2548352.187000684)
2652,ALVENCAS / OSCAR BRESSANI,63670000,1,1060.0,63,MARÍLIA,SÃO PAULO,DAEE-SP,-22.2675,-50.1489,1970/05/28,1977/12/03,8,1.1,4,50.0,POINT (-5582550.011842797 -2543672.249191761)
2653,VARPA,63700000,1,2650.0,63,TUPÃ,SÃO PAULO,ANA,-22.0822,-50.5494,1945/12/22,1978/12/31,34,3.5,30,11.8,POINT (-5627133.467905503 -2521397.190935094)
2654,ESTRADA DO QUATA,63710000,1,2910.0,63,TUPÃ,SÃO PAULO,ANA,-22.0628,-50.6094,1962/06/16,2007/12/31,46,32.0,25,45.7,POINT (-5633812.6373531 -2519066.7960594725)
2655,GRANJA ONO ,63730000,1,65.5,63,BASTOS,SÃO PAULO,DAEE-SP,-21.9333,-50.6667,1984/04/04,2005/02/28,22,4.4,15,31.8,POINT (-5640191.244175554 -2503518.984435111)
2656,FAZENDA SÃO LUIZ,63790000,1,701.0,63,CAIABU,SÃO PAULO,DAEE-SP,-21.8831,-51.265,1980/12/10,2018/04/30,39,2.7,32,17.9,POINT (-5706793.69551717 -2497495.7661863165)
2657,FLORA RICA,63810000,1,7620.0,63,FLORA RICA,SÃO PAULO,DAEE-SP,-21.7439,-51.4447,1970/08/08,1977/01/23,8,3.0,2,75.0,POINT (-5726797.80801272 -2480805.0008578543)
2669,UHE PORTO PRIMAVERA BARRAMENTO,63995080,1,572000.0,63,ROSANA,SÃO PAULO,CESP,-22.4817,-52.9564,1931/01/01,2015/06/29,85,71.9,22,74.1,POINT (-5895079.482244913 -2569458.2013021978)
2670,FERREIRA DAS ALMAS,64005000,1,687.0,64,CAPÃO BONITO,SÃO PAULO,DAEE-SP,-23.9417,-48.2131,1969/01/01,1997/11/30,29,0.5,27,6.9,POINT (-5367057.741565177 -2746305.6080616023)
2671,TURVO,64015000,1,772.0,64,ITAPETININGA,SÃO PAULO,ANA,-23.8508,-48.2111,2007/01/01,2016/08/31,10,31.6,3,70.0,POINT (-5366835.102583592 -2735237.950459826)
2672,BAIRRO CERRADO,64035000,1,490.0,64,CAPÃO BONITO,SÃO PAULO,DAEE-SP,-24.0167,-48.2667,1960/08/28,1981/10/28,22,0.0,20,9.1,POINT (-5373024.466271698 -2755443.209142136)
2673,CERRADINHO,64040000,1,532.0,64,CAPÃO BONITO,SÃO PAULO,ANA,-23.9697,-48.2783,1938/10/09,2018/06/30,81,1.1,71,12.3,POINT (-5374315.7723648995 -2749716.3568921094)
2674,PORTO VELHO,64065000,1,1520.0,64,ITAPETININGA,SÃO PAULO,ANA,-23.6253,-48.1053,1947/11/01,2017/06/19,71,4.3,61,14.1,POINT (-5355057.500457663 -2707815.3022480602)
2675,ANGATUBA,64075000,1,2520.0,64,ANGATUBA,SÃO PAULO,ANA,-23.5639,-48.3897,1935/05/20,2010/07/26,76,1.0,65,14.5,POINT (-5386716.763639269 -2700356.753825686)
2676,UHE JURUMIRIM CAMPINA DO MONTE ALEGRE,64080000,1,5860.0,64,CAMPINA DO MONTE AL,SÃO PAULO,PARANAPANEMA,-23.5928,-48.4914,2012/01/01,2012/12/31,1,0.0,1,0.0,POINT (-5398037.955852946 -2703866.938652356)
2677,CAMPINA DO MONTE ALEGRE,64082000,1,5790.0,64,BURI,SÃO PAULO,ANA,-23.6,-48.4833,1969/01/01,1980/01/18,12,0.0,11,8.3,POINT (-5397136.267977521 -2704741.568653267)
2678,TAQUARIVAI ,64095000,1,952.0,64,BURI,SÃO PAULO,DAEE-SP,-23.9242,-48.6589,1946/11/01,1998/11/30,53,0.9,47,11.3,POINT (-5416683.97056082 -2744174.2658950714)
2679,PONTE MARCOLINO NUNES,64113000,1,707.0,64,ITAPEVA,SÃO PAULO,DAEE-SP,-23.9344,-48.5511,1969/09/04,2000/12/31,32,1.1,27,15.6,POINT (-5404683.729453305 -2745416.4987761416)
2680,UHE JURUMIRIM BURI,64119000,1,2010.0,64,BURI,SÃO PAULO,PARANAPANEMA,-23.7986,-48.5867,2012/01/01,2012/12/31,1,0.0,1,0.0,POINT (-5408646.703325545 -2728885.7761388845)
2681,BURI,64120000,1,2020.0,64,BURI,SÃO PAULO,ANA,-23.8,-48.5833,1969/01/01,1980/01/18,12,0.0,11,8.3,POINT (-5408268.217056848 -2729056.1076330794)
2682,BURI ,64120100,1,2010.0,64,BURI,SÃO PAULO,DAEE-SP,-23.8,-48.5833,1933/10/01,1980/03/18,48,0.0,46,4.2,POINT (-5408268.217056848 -2729056.1076330794)
2683,PONTE DOS TEODOROS,64135000,1,535.0,64,ANGATUBA,SÃO PAULO,ANA,-23.4742,-48.4353,1987/10/01,2018/06/30,32,61.0,9,71.9,POINT (-5391792.9324194435 -2689466.7321790233)
2684,ITAPEVA,64185000,1,836.0,64,ITAPEVA,SÃO PAULO,ANA,-23.9614,-48.9497,1987/10/01,2018/04/30,32,61.6,8,75.0,POINT (-5449055.678483503 -2748705.2362549766)
2685,ITAPEVA,64190000,1,814.0,64,ITAPEVA,SÃO PAULO,ANA,-23.9833,-48.9167,1951/10/01,1980/04/12,30,0.1,27,10.0,POINT (-5445382.135287326 -2751373.2736672168)
2686,PALMEIRAS DO RICARDO,64191000,1,544.0,64,ITAPEVA,SÃO PAULO,ANA,-23.9558,-48.9922,1987/10/01,2018/06/30,32,61.0,9,71.9,POINT (-5453786.756842217 -2748023.071156443)
2687,UHE JURUMIRIM FAZENDA AGROLIN,64198000,1,2110.0,64,ITABERÁ,SÃO PAULO,PARANAPANEMA,-23.7786,-49.0542,2012/01/01,2012/12/31,1,0.0,1,0.0,POINT (-5460688.5652714 -2726452.66941971)
2688,UHE JURUMIRIM BARRAMENTO,64215080,1,17900.0,64,PIRAJU,SÃO PAULO,PARANAPANEMA,-23.21,-49.2292,1931/01/01,2015/06/29,85,71.9,21,75.3,POINT (-5480169.476160224 -2657434.41798989)
2689,UHE PIRAJU BARRAMENTO,64219080,1,18400.0,64,PIRAJU,SÃO PAULO,CBA,-23.1544,-49.38,1931/01/01,2001/12/31,71,85.6,10,85.9,POINT (-5496956.455371849 -2650701.415750382)
2690,UHE PIRAJU JUSANTE,64219200,1,18401.0,64,PIRAJU,SÃO PAULO,CBA,-23.1603,-49.3786,2014/09/24,2017/12/31,4,9.0,0,100.0,POINT (-5496800.608084738 -2651415.7563639185)
2691,PIRAJU,64220000,1,18400.0,64,PIRAJU,SÃO PAULO,ANA,-23.1833,-49.3833,1969/01/01,1980/01/15,12,0.7,10,16.7,POINT (-5497323.809691467 -2654200.7745448784)
2692,UHE CHAVANTES PIRAJU JUSANTE,64220050,1,18300.0,64,PIRAJU,SÃO PAULO,PARANAPANEMA,-23.1792,-49.3922,2012/01/01,2012/12/31,1,0.0,1,0.0,POINT (-5498314.5531595275 -2653704.279730005)
2699,OLARIA DOS PADRES,64245000,1,4230.0,64,ITAPORANGA,SÃO PAULO,ANA,-23.7167,-49.55,1969/01/01,1980/01/17,12,0.0,11,8.3,POINT (-5515880.768806705 -2718924.5735166334)
2701,ITAPORANGA,64250000,1,1480.0,64,ITAPORANGA,SÃO PAULO,ANA,-23.7,-49.4667,1969/01/01,1980/01/16,12,0.0,11,8.3,POINT (-5506607.855223626 -2716894.1810176144)
2702,UHE CHAVANTES ITAPORANGA,64250010,1,1450.0,64,ITAPORANGA,SÃO PAULO,PARANAPANEMA,-23.7331,-49.4303,2012/01/01,2012/12/31,1,0.0,1,0.0,POINT (-5502555.825758751 -2720918.7449371475)
2703,UHE CHAVANTES BARRAMENTO,64270080,1,27800.0,64,CHAVANTES,SÃO PAULO,PARANAPANEMA,-23.1281,-49.7317,1931/01/01,2015/06/29,85,71.9,22,74.1,POINT (-5536107.520283842 -2647517.5341631686)
2704,PORTO ERMIDÃO (IRAPE),64273000,1,27800.0,64,CHAVANTES,SÃO PAULO,DAEE-SP,-23.0975,-49.7403,1937/06/11,1969/02/28,33,1.4,25,24.2,POINT (-5537064.867904665 -2643813.8794976827)
2705,PORTO ERMIDÃO,64275000,1,27800.0,64,CHAVANTES,SÃO PAULO,ANA,-23.1,-49.75,1969/01/01,1981/03/31,13,7.9,10,23.1,POINT (-5538144.666965361 -2644116.434002208)
2706,UHE OURINHOS BARRAMENTO,64278080,1,28200.0,64,OURINHOS,SÃO PAULO,CBA,-23.0678,-49.8375,1931/01/01,2015/06/29,85,74.9,18,78.8,POINT (-5547885.122409771 -2640219.9625133416)
2707,UHE OURINHOS JUSANTE,64278500,1,27945.0,64,OURINHOS,SÃO PAULO,CBA,-23.0714,-49.8464,2013/12/18,2017/12/31,5,2.2,1,80.0,POINT (-5548875.865877832 -2640655.5465376484)
2709,CHÁCARA DOS PINHAIS,64290000,1,128.0,64,BOTUCATU,SÃO PAULO,DAEE-SP,-22.9667,-48.4333,1980/12/09,1984/07/23,5,2.9,0,100.0,POINT (-5391570.293437857 -2627992.0623241756)
2710,CGH RIO NOVO JUSANTE,64310000,1,412.0,64,AVARÉ,SÃO PAULO,SANTA CRUZ,-22.9589,-48.9794,2013/12/06,2018/12/31,6,3.8,3,50.0,POINT (-5452361.867360064 -2627049.0439606532)
2711,ÁGUAS DE SANTA BÁRBARA,64315000,1,3340.0,64,ÁGUAS DE SANTA BÁRB,SÃO PAULO,DAEE-SP,-22.8786,-49.2381,1955/03/10,2018/06/30,64,0.6,58,9.4,POINT (-5481160.219628284 -2617343.948351906)
2712,SANTA CRUZ DO RIO PARDO ,64320000,1,4190.0,64,SANTA CRUZ DO RIO P,SÃO PAULO,DAEE-SP,-22.9,-49.6167,1955/03/04,1980/03/10,26,0.0,24,7.7,POINT (-5523305.778842617 -2619929.8004916054)
2713,UHE SALTO GRANDE SANTA CRUZ DO RIO PARDO,64320010,1,4270.0,64,SANTA CRUZ DO RIO P,SÃO PAULO,PARANAPANEMA,-22.9072,-49.6253,2012/01/01,2012/12/31,1,0.0,1,0.0,POINT (-5524263.126463439 -2620799.8985245563)
2714,SANTA CRUZ DO RIO PARDO,64323000,1,4190.0,64,SANTA CRUZ DO RIO P,SÃO PAULO,ANA,-22.9,-49.6167,1930/09/01,1980/01/15,51,0.0,48,5.9,POINT (-5523305.778842617 -2619929.8004916054)
2715,SÃO PEDRO DO TURVO,64327000,1,891.0,64,SÃO PEDRO DO TURVO,SÃO PAULO,DAEE-SP,-22.7514,-49.735,1980/11/14,2018/05/31,39,0.6,35,10.3,POINT (-5536474.874603461 -2601982.2299734205)
2716,SÃO PEDRO DO TURVO ,64328000,1,3890.0,64,SÃO PEDRO DO TURVO,SÃO PAULO,DAEE-SP,-22.7667,-49.7333,1970/02/01,1980/03/04,11,0.0,9,18.2,POINT (-5536285.631469112 -2603829.2254847214)
2717,UHE SALTO GRANDE FAZENDA DA BARRA,64328050,1,3880.0,64,SÃO PEDRO DO TURVO,SÃO PAULO,PARANAPANEMA,-22.7739,-49.7408,2012/01/01,2012/12/31,1,0.0,1,0.0,POINT (-5537120.527650062 -2604698.4714591266)
2718,UHE SALTO GRANDE BARRAMENTO,64332080,1,38800.0,64,SALTO GRANDE,SÃO PAULO,PARANAPANEMA,-22.905,-50.0014,1931/01/01,2015/06/29,85,71.9,22,74.1,POINT (-5566130.386950788 -2620534.0303354906)
2719,SALTO GRANDE - CIA AVE,64333000,1,1000.0,64,SALTO GRANDE,SÃO PAULO,DAEE-SP,-22.84,-49.9925,1970/12/16,1980/03/04,11,0.0,9,18.2,POINT (-5565139.643482729 -2612680.777889171)
2720,PORTO JAÚ,64335100,1,38800.0,64,SALTO GRANDE,SÃO PAULO,ANA,-22.9,-50.0167,1952/05/04,1980/01/14,29,0.0,27,6.9,POINT (-5567833.575159927 -2619929.8004916054)
2722,PLATINA,64344000,1,427.0,64,PLATINA,SÃO PAULO,DAEE-SP,-22.6333,-50.2,1979/02/01,2018/05/31,40,19.6,22,45.0,POINT (-5588238.437822334 -2587732.302474681)
2723,SUCUI,64345000,1,900.0,64,PALMITAL,SÃO PAULO,DAEE-SP,-22.8,-50.3,1969/09/01,2018/06/30,50,4.4,43,14.0,POINT (-5599370.386901661 -2607849.8726871307)
2724,UHE CANOAS II BARRAMENTO,64345075,1,39600.0,64,PALMITAL,SÃO PAULO,CONS.CANOAS,-22.9378,-50.2492,1931/01/01,2015/06/29,85,71.9,22,74.1,POINT (-5593715.356769362 -2624498.330857144)
2725,UHE CANOAS I BARRAMENTO,64345080,1,41300.0,64,CÂNDIDO MOTA,SÃO PAULO,CONS.CANOAS,-22.9439,-50.5169,1931/01/01,2015/06/29,85,71.9,22,74.1,POINT (-5623515.584454722 -2625235.6999393795)
2726,AGICE,64346000,1,649.0,64,RANCHARIA,SÃO PAULO,DAEE-SP,-22.5333,-50.9167,1979/04/17,2018/05/31,40,4.8,25,37.5,POINT (-5668021.1168738725 -2575675.89235008)
2740,MARACAI (7D-008),64395000,1,1560.0,64,MARACAÍ,SÃO PAULO,DAEE-SP,-22.6167,-50.6833,1979/08/10,2018/03/31,40,0.9,32,20.0,POINT (-5642039.147722723 -2585730.3321878943)
2825,UHE ROSANA BARRAMENTO,64571080,1,101000.0,64,ROSANA,SÃO PAULO,PARANAPANEMA,-22.6042,-52.8753,1931/01/01,2015/06/29,85,71.9,22,74.1,POINT (-5886051.471541578 -2584222.983929958)
3414,MATO DENTRO,80010000,1,64.0,80,UBATUBA,SÃO PAULO,DAEE-SP,-23.4347,-45.0853,1972/01/05,1975/03/10,4,0.6,1,75.0,POINT (-5018872.638261977 -2684673.587139099)
3415,RIO GUAXINDUBA (Caraguatatuba),80100000,1,5.2,80,CARAGUATATUBA,SÃO PAULO,CETESB-SP,-23.6208,-45.3767,1928/04/01,1935/12/31,8,4.3,5,37.5,POINT (-5051311.137879137 -2707268.5473513966)
3416,FAZENDA RIO CLARO,80130000,1,72.0,80,CARAGUATATUBA,SÃO PAULO,DAEE-SP,-23.6994,-45.4847,1980/10/09,1990/01/21,11,13.8,6,45.5,POINT (-5063333.64288481 -2716821.2376196347)
3417,FAZENDA N.S. APARECIDA,80200000,1,39.0,80,BIRITIBA-MIRIM,SÃO PAULO,ANA,-23.6569,-46.0106,1962/07/05,2007/12/31,46,4.5,35,23.9,POINT (-5121876.563092993 -2711655.2659794884)
3418,QUILOMBO,80280000,1,57.0,80,SANTOS,SÃO PAULO,DAEE-SP,-23.8303,-46.32,1971/10/21,1987/11/18,17,5.1,12,29.4,POINT (-5156318.813544432 -2732743.0178561425)
3419,CUBATÃO DE CIMA,80310000,1,21.4,80,SÃO BERNARDO DO CAM,SÃO PAULO,EMAE,-23.9167,-46.5833,1926/10/01,1944/02/29,19,15.9,2,89.5,POINT (-5185629.2354703015 -2743260.921957625)
3420,CUBATÃO DE CIMA - VERTEDOURO,80320000,1,13.2,80,CUBATÃO,SÃO PAULO,EMAE,-23.9667,-46.5667,1932/12/01,1937/03/31,6,2.0,3,50.0,POINT (-5183781.331923132 -2749350.8840877987)
3421,PASSAREUVA - VERTEDOURO,80330000,1,12.5,80,SÃO BERNARDO DO CAM,SÃO PAULO,EMAE,-23.8972,-46.5519,1926/09/01,1938/04/30,13,13.7,0,100.0,POINT (-5182133.803459393 -2740886.475800754)
3422,MARCOLINO (CSIC),80340000,1,4.7,80,SÃO BERNARDO DO CAM,SÃO PAULO,EMAE,-23.8503,-46.5119,1926/10/01,1939/11/30,14,8.3,4,71.4,POINT (-5177681.02382766 -2735177.093751004)
3423,PONTE PRETA ,80360000,1,167.0,80,CUBATÃO,SÃO PAULO,DAEE-SP,-23.8833,-46.45,1966/11/03,1969/06/30,4,4.5,1,75.0,POINT (-5170790.347347558 -2739194.1404637857)
3424,PEREQUE DE BAIXO,80410000,1,91.8,80,CUBATÃO,SÃO PAULO,EMAE,-23.85,-46.4167,1926/09/01,1947/08/31,22,2.4,16,27.3,POINT (-5167083.408304141 -2735140.5798384105)
3425,MOJI,80450000,1,19.0,80,CUBATÃO,SÃO PAULO,DAEE-SP,-23.8225,-46.3611,1972/08/01,1974/10/31,3,5.5,0,100.0,POINT (-5160894.044616035 -2731793.829991235)
3426,USINA RIO DOS CAMPOS,80800000,1,142.0,80,SÃO PAULO,SÃO PAULO,DAEE-SP,-23.9619,-46.6583,1953/02/06,1973/10/29,21,1.4,16,23.8,POINT (-5193978.197279796 -2748766.14529389)
3427,USINA CAPIVARI (DAEE),80850000,1,150.0,80,SÃO PAULO,SÃO PAULO,EMAE,-23.9667,-46.65,1940/09/01,1958/04/30,19,26.4,9,52.6,POINT (-5193054.245506212 -2749350.8840877987)
3428,FAZENDA ÁGUA QUENTE,80860000,1,264.0,80,ITANHAÉM,SÃO PAULO,DAEE-SP,-24.0744,-46.78,1980/12/12,1990/06/28,11,0.9,6,45.5,POINT (-5207525.779309338 -2762476.6974985236)
3429,FAZENDA ITAOCA  ,80870000,1,97.0,80,MONGAGUÁ,SÃO PAULO,DAEE-SP,-24.0864,-46.7172,1980/08/15,1986/12/02,7,8.9,1,85.7,POINT (-5200534.91528752 -2763939.865315798)
3430,ITANHAÉM,80900000,1,92400.0,80,ITANHAÉM,SÃO PAULO,DAEE-SP,-24.1811,-46.7953,1980/10/01,1993/06/30,14,10.5,8,42.9,POINT (-5209228.967518475 -2775491.5118569774)
3448,RIBEIRA - BALSA ,81170000,1,7160.0,81,RIBEIRA,SÃO PAULO,DAEE-SP,-24.6333,-49.0,1971/12/10,1983/06/30,13,0.0,11,15.4,POINT (-5454655.048870405 -2830770.562545643)
3449,CAPELA DA RIBEIRA,81200000,1,7360.0,81,RIBEIRA,SÃO PAULO,ANA,-24.6556,-48.9997,1936/10/20,2010/12/31,75,0.2,72,4.0,POINT (-5454621.653023167 -2833501.764520114)
3450,RIBEIRA ,81205000,1,7350.0,81,RIBEIRA,SÃO PAULO,DAEE-SP,-24.6564,-49.0031,1962/03/01,1998/01/31,37,2.8,31,16.2,POINT (-5455000.139291865 -2833599.7539234045)
3462,ANDORINHAS,81330000,1,3140.0,81,IPORANGA,SÃO PAULO,DAEE-SP,-24.6728,-48.5792,1969/08/01,1998/02/28,30,3.4,22,26.7,POINT (-5407811.807144595 -2835608.675133674)
3463,CÓRREGO COMPRIDO,81335000,1,2930.0,81,BARRA DO TURVO,SÃO PAULO,ANA,-24.7586,-48.5086,1976/09/24,2010/12/31,35,3.0,27,22.9,POINT (-5399952.65109459 -2846123.074564655)
3464,PASSAGEM DO MEIO ,81345000,1,176.0,81,IPORANGA,SÃO PAULO,DAEE-SP,-24.5833,-48.6333,1972/01/21,1983/01/31,12,0.0,10,16.7,POINT (-5413834.191596511 -2824648.561922402)
3465,IPORANGA,81350000,1,12500.0,81,IPORANGA,SÃO PAULO,ANA,-24.5864,-48.5922,1941/11/01,2007/12/31,67,0.0,66,1.5,POINT (-5409258.960524908 -2825028.054838104)
3466,ELDORADO,81380000,1,14700.0,81,ELDORADO,SÃO PAULO,ANA,-24.5197,-48.1056,1938/10/12,2017/12/31,80,4.4,70,12.5,POINT (-5355090.896304902 -2816864.9072398664)
3467,SÍTIO ALAMBARI,81400000,1,347.0,81,SETE BARRAS,SÃO PAULO,DAEE-SP,-24.3872,-48.0097,1971/04/06,1977/05/31,7,1.3,5,28.6,POINT (-5344415.357137826 -2800661.5991087933)
3468,SETE BARRAS,81420000,1,15300.0,81,SETE BARRAS,SÃO PAULO,ANA,-24.3925,-47.925,2004/01/01,2017/12/31,14,28.6,6,57.1,POINT (-5334986.596267635 -2801309.4046295853)
3469,BELVEDERE,81428000,1,34.6,81,JUQUITIBA,SÃO PAULO,DAEE-SP,-23.9678,-46.8992,1981/12/30,1999/12/31,19,1.7,15,21.1,POINT (-5220795.062611896 -2749484.889794937)
3470,ROSAS ,81430500,1,138.0,81,JUQUITIBA,SÃO PAULO,DAEE-SP,-23.9831,-47.0078,1980/08/01,2017/12/31,38,28.7,20,47.4,POINT (-5232884.359312045 -2751348.905976694)
3471,JUQUITIBA,81440000,1,195.0,81,JUQUITIBA,SÃO PAULO,DAEE-SP,-23.94,-47.09,1971/12/07,1987/04/30,17,0.0,14,17.6,POINT (-5242034.821455252 -2746098.550722195)
3472,JUQUITIBA - II,81450000,1,236.0,81,JUQUITIBA,SÃO PAULO,ANA,-23.9339,-47.07,1952/08/07,2007/12/31,56,2.0,46,17.9,POINT (-5239808.431639386 -2745355.6027199267)
3473,JUQUITIBA I,81470000,1,436.0,81,JUQUITIBA,SÃO PAULO,ANA,-23.9389,-47.0964,1951/10/01,1980/02/15,30,0.0,27,10.0,POINT (-5242747.26619633 -2745964.573897203)
3474,CARMOS,81470001,1,460.0,81,JUQUITIBA,SÃO PAULO,DAEE-SP,-23.9411,-47.0997,1981/09/01,1996/10/31,16,10.8,12,25.0,POINT (-5243114.620515947 -2746232.5286891693)
3475,UHE FUMAÇA JUSANTE,81495200,1,1077.0,81,IBIÚNA,SÃO PAULO,CBA,-24.0103,-47.2936,2013/12/15,2017/12/31,5,6.1,0,100.0,POINT (-5264699.469780763 -2754663.2594396444)
3476,UHE BARRA JUSANTE,81496200,1,1451.0,81,TAPIRAÍ,SÃO PAULO,CBA,-24.0283,-47.3567,2013/12/09,2017/12/31,5,6.5,1,80.0,POINT (-5271723.7296498185 -2756856.966933467)
3477,PCH SERRARIA JUSANTE,81499085,1,1731.0,81,JUQUIÁ,SÃO PAULO,CBA,-24.1511,-47.5547,2013/12/13,2017/12/31,5,3.0,0,100.0,POINT (-5293764.988826886 -2771831.1413373146)
3478,UHE JURUPARA JUSANTE,81499200,1,145.0,81,PIEDADE,SÃO PAULO,CBA,-23.9722,-47.3872,2013/12/12,2017/12/31,5,5.1,1,80.0,POINT (-5275118.974119013 -2750020.924061416)
3479,UHE SALTO DO IPORANGA JUSANTE,81501000,1,412.0,81,JUQUIÁ,SÃO PAULO,CBA,-24.1094,-47.6861,2013/12/31,2017/12/31,5,2.5,2,60.0,POINT (-5308392.369917123 -2766744.6533059645)
3480,BAIRRO IPORANGA ,81510000,1,412.0,81,JUQUIÁ,SÃO PAULO,DAEE-SP,-24.1075,-47.6819,1959/04/01,2000/12/31,42,0.4,38,9.5,POINT (-5307924.828055791 -2766512.934342787)
3481,CAPELA DO PORTO,81519000,1,635.0,81,JUQUIÁ,SÃO PAULO,ANA,-24.1742,-47.6536,2004/01/01,2018/03/31,15,0.6,13,13.3,POINT (-5304774.486466341 -2774649.550475355)
3482,ABAIXO CAPELA,81525000,1,639.0,81,JUQUIÁ,SÃO PAULO,ANA,-24.1806,-47.6467,1953/02/26,1980/02/09,28,0.0,26,7.1,POINT (-5304006.381979869 -2775430.4986327644)
3483,BARRA DO AÇUNGUI,81530000,1,2440.0,81,JUQUIÁ,SÃO PAULO,ANA,-24.2064,-47.6133,1951/12/16,2007/12/31,57,2.0,43,24.6,POINT (-5300288.310987373 -2778579.093254154)
3484,BARRA DO AÇUNGUI,81531000,1,2410.0,81,JUQUIÁ,SÃO PAULO,DAEE-SP,-24.1844,-47.6211,1959/01/01,2000/05/31,42,1.0,38,9.5,POINT (-5301156.60301556 -2775894.2051331555)
3485,ABAIXO RIO AÇUNGUI,81532000,1,2440.0,81,JUQUIÁ,SÃO PAULO,DAEE-SP,-24.2069,-47.6122,1972/04/01,1979/04/30,8,0.0,6,25.0,POINT (-5300165.8595475 -2778640.1188232945)
3486,PORTO DA GOIABA,81545000,1,2540.0,81,JUQUIÁ,SÃO PAULO,ANA,-24.2886,-47.6172,2004/01/01,2018/02/28,15,0.7,13,13.3,POINT (-5300722.457001466 -2788614.917258481)
3487,PEDRA DO LARGO,81560000,1,596.0,81,MIRACATU,SÃO PAULO,DAEE-SP,-24.1456,-47.2875,1963/07/25,1994/08/07,32,0.3,28,12.5,POINT (-5264020.4208869245 -2771160.166657453)
3488,BAIRRO IGREJINHA,81575000,1,26.7,81,ITARIRI,SÃO PAULO,DAEE-SP,-24.3308,-47.1853,1955/04/01,1971/11/21,17,0.0,15,11.8,POINT (-5252643.5689278515 -2793769.6516877017)
3489,ITARIRI,81580000,1,73.0,81,ITARIRI,SÃO PAULO,ANA,-24.2889,-47.1772,1937/08/01,2007/12/31,71,3.5,60,15.5,POINT (-5251741.881052426 -2788651.556239583)
3490,GUANHANHA,81585000,1,92.5,81,ITARIRI,SÃO PAULO,DAEE-SP,-24.2719,-47.1658,1959/02/26,2018/05/31,60,1.6,51,15.0,POINT (-5250472.838857383 -2786575.483815706)
3491,PRAIA ALTA,81595000,1,356.0,81,PEDRO DE TOLEDO,SÃO PAULO,ANA,-24.2461,-47.2608,2004/01/01,2018/06/30,15,1.2,13,13.3,POINT (-5261048.190482744 -2783425.2691405728)
3492,BRAÇO GRANDE,81597000,1,214.0,81,PEDRO DE TOLEDO,SÃO PAULO,DAEE-SP,-24.1264,-47.2697,1980/01/01,1999/12/31,20,0.4,18,10.0,POINT (-5262038.933950804 -2768818.0813130476)
3493,ENGENHO ,81598000,1,720.0,81,MIRACATU,SÃO PAULO,DAEE-SP,-24.1814,-47.3717,1981/06/22,2017/12/31,37,13.9,26,29.7,POINT (-5273393.522011717 -2775528.1199062616)
3494,PEDRO BARROS,81600000,1,1260.0,81,MIRACATU,SÃO PAULO,ANA,-24.2489,-47.3744,1937/07/29,2007/12/31,71,0.3,68,4.2,POINT (-5273694.08463686 -2783767.1219852003)
3495,FAU ,81615000,1,69.8,81,MIRACATU,SÃO PAULO,DAEE-SP,-24.2081,-47.4778,1971/12/17,2018/06/30,48,7.6,40,16.7,POINT (-5285204.519984884 -2778786.581166055)
3496,ABAIXO FAU,81620000,1,1460.0,81,MIRACATU,SÃO PAULO,DAEE-SP,-24.2644,-47.4506,1981/06/11,1997/12/31,17,3.5,11,35.3,POINT (-5282176.629835307 -2785659.6578231896)
3497,MIRACATU,81630000,1,1480.0,81,MIRACATU,SÃO PAULO,ANA,-24.2811,-47.4606,1951/12/09,2007/12/31,57,0.9,53,7.0,POINT (-5283289.824743239 -2787698.9708637004)
3498,VILA SÃO JOSÉ,81640000,1,127.0,81,MIRACATU,SÃO PAULO,DAEE-SP,-24.3194,-47.5089,1971/12/07,1979/12/31,9,9.8,4,55.6,POINT (-5288666.556148554 -2792376.971391181)
3499,SÍTIO JABORANDI ,81650000,1,1760.0,81,JUQUIÁ,SÃO PAULO,DAEE-SP,-24.3092,-47.5767,1961/12/15,2001/07/31,41,2.4,35,14.6,POINT (-5296214.017624339 -2791130.9951667394)
3500,JUQUIÁ,81679000,1,4360.0,81,JUQUIÁ,SÃO PAULO,ANA,-24.3206,-47.625,1987/10/01,2017/12/31,31,15.5,20,35.5,POINT (-5301590.749029654 -2792523.5634189043)
3501,JUQUIÁ 1,81680000,1,4360.0,81,JUQUIÁ,SÃO PAULO,ANA,-24.3225,-47.635,1937/01/01,1980/02/09,44,0.0,43,2.3,POINT (-5302703.943937587 -2792755.6703006527)
3502,FUNDO,81680500,1,146.0,81,JUQUIÁ,SÃO PAULO,DAEE-SP,-24.2992,-47.7394,1980/12/01,1998/04/30,19,0.0,17,10.5,POINT (-5314325.698776404 -2789909.547112801)
3503,SÍTIO BELIZARIO,81681000,1,4633.0,81,JUQUIÁ,SÃO PAULO,DAEE-SP,-24.3506,-47.7897,1971/02/01,1980/12/31,10,0.0,9,10.0,POINT (-5319925.069163306 -2796188.8153147665)
3504,PORTO DA ESTRADA ,81681400,1,375.0,81,SETE BARRAS,SÃO PAULO,DAEE-SP,-24.3169,-47.8542,1981/07/01,1999/08/31,19,0.0,17,10.5,POINT (-5327105.176319472 -2792071.575789701)
3505,QUILOMBO,81681800,1,266.0,81,SETE BARRAS,SÃO PAULO,DAEE-SP,-24.3286,-47.9214,1981/07/01,1998/01/31,18,9.1,13,27.8,POINT (-5334585.84610078 -2793500.8790687704)
3506,BARRANCO ALTO ,81682000,1,4700.0,81,REGISTRO,SÃO PAULO,DAEE-SP,-24.3667,-47.8333,1973/02/13,1976/07/25,4,17.9,1,75.0,POINT (-5324778.598961893 -2798156.1919245776)
3507,REGISTRO,81683000,1,20900.0,81,REGISTRO,SÃO PAULO,ANA,-24.49,-47.8367,1953/09/01,2017/12/31,65,1.4,56,13.8,POINT (-5325157.08523059 -2813231.4377804087)
3508,JURUMIRIM,81684000,1,21100.0,81,JUMIRIM,SÃO PAULO,DAEE-SP,-24.5008,-47.7456,1953/09/21,1971/11/18,19,0.0,17,10.5,POINT (-5315015.879619324 -2814552.600074944)
3509,JACUPIRANGA,81710000,1,777.0,81,JACUPIRANGA,SÃO PAULO,ANA,-24.6897,-48.0014,1951/12/05,2007/11/30,57,5.6,48,15.8,POINT (-5343491.405364241 -2837679.1203149697)
3510,BARRA DO CAPINZAL,81780000,1,1317.0,81,REGISTRO,SÃO PAULO,DAEE-SP,-24.6003,-47.8917,1941/09/01,1971/11/18,31,1.8,27,12.9,POINT (-5331279.65722422 -2826729.767631448)
3511,INGATUBA,81790000,1,1340.0,81,REGISTRO,SÃO PAULO,ANA,-24.5933,-47.8789,2004/01/01,2017/12/31,14,0.0,14,0.0,POINT (-5329854.767742066 -2825872.7663477906)
3512,BARRA DO AZEITE,81790001,1,204.0,81,CAJATI,SÃO PAULO,DAEE-SP,-24.7808,-48.1722,1971/12/04,1997/12/28,27,8.1,20,25.9,POINT (-5362504.774391732 -2848844.765060301)
3513,FAZENDA OURO VERDE ,81850000,1,135.0,81,PARIQUERA-AÇU,SÃO PAULO,DAEE-SP,-24.6603,-47.8706,1971/12/04,1998/01/22,28,3.3,21,25.0,POINT (-5328930.815968483 -2834077.4612586484)
3514,FAZENDA MACHADO,81980000,1,119.0,81,IGUAPE,SÃO PAULO,DAEE-SP,-24.6189,-47.4489,1971/01/01,1973/11/30,3,0.0,2,33.3,POINT (-5281987.386700958 -2829007.1754421783)
